<?xml version="1.0" ?>
<osm version="0.6" generator="Antigravity OSM Generator">
  <bounds minlat="27.061491919529107" minlon="-109.7277558150625" maxlat="27.098328080470893" maxlon="-109.6863841849375"/>
  <node id="1" lat="27.092681022" lon="-109.717655319" version="1"/>
  <node id="2" lat="27.092680951" lon="-109.717554314" version="1"/>
  <node id="3" lat="27.092680934" lon="-109.717453310" version="1"/>
  <node id="4" lat="27.092680937" lon="-109.717352305" version="1"/>
  <node id="5" lat="27.092681344" lon="-109.717251300" version="1"/>
  <node id="6" lat="27.092689400" lon="-109.717160395" version="1"/>
  <node id="7" lat="27.092689472" lon="-109.717059390" version="1"/>
  <node id="8" lat="27.092689554" lon="-109.716958385" version="1"/>
  <node id="9" lat="27.092690011" lon="-109.716857380" version="1"/>
  <node id="10" lat="27.092698070" lon="-109.716756375" version="1"/>
  <node id="11" lat="27.092698043" lon="-109.716655370" version="1"/>
  <node id="12" lat="27.092697931" lon="-109.716554365" version="1"/>
  <node id="13" lat="27.092690836" lon="-109.716453360" version="1"/>
  <node id="14" lat="27.092688985" lon="-109.716362456" version="1"/>
  <node id="15" lat="27.092680955" lon="-109.716261451" version="1"/>
  <node id="16" lat="27.092673528" lon="-109.716170547" version="1"/>
  <node id="17" lat="27.092664427" lon="-109.716079642" version="1"/>
  <node id="18" lat="27.092653652" lon="-109.715988738" version="1"/>
  <node id="19" lat="27.092641317" lon="-109.715907934" version="1"/>
  <node id="20" lat="27.092626944" lon="-109.715817029" version="1"/>
  <node id="21" lat="27.092612572" lon="-109.715736225" version="1"/>
  <node id="22" lat="27.092596102" lon="-109.715655421" version="1"/>
  <node id="23" lat="27.092579762" lon="-109.715574617" version="1"/>
  <node id="24" lat="27.092563437" lon="-109.715493166" version="1"/>
  <node id="25" lat="27.092545451" lon="-109.715403441" version="1"/>
  <node id="26" lat="27.092527464" lon="-109.715323197" version="1"/>
  <node id="27" lat="27.092509478" lon="-109.715243012" version="1"/>
  <node id="28" lat="27.092493063" lon="-109.715160497" version="1"/>
  <node id="29" lat="27.092476378" lon="-109.715079693" version="1"/>
  <node id="30" lat="27.092459744" lon="-109.714998889" version="1"/>
  <node id="31" lat="27.092445181" lon="-109.714918085" version="1"/>
  <node id="32" lat="27.092428539" lon="-109.714834347" version="1"/>
  <node id="33" lat="27.092412468" lon="-109.714746377" version="1"/>
  <node id="34" lat="27.092397578" lon="-109.714665573" version="1"/>
  <node id="35" lat="27.092383501" lon="-109.714584769" version="1"/>
  <node id="36" lat="27.092368373" lon="-109.714493864" version="1"/>
  <node id="37" lat="27.092356256" lon="-109.714413060" version="1"/>
  <node id="38" lat="27.092344928" lon="-109.714322156" version="1"/>
  <node id="39" lat="27.092334441" lon="-109.714231251" version="1"/>
  <node id="40" lat="27.092325183" lon="-109.714140347" version="1"/>
  <node id="41" lat="27.092318026" lon="-109.714049442" version="1"/>
  <node id="42" lat="27.092315051" lon="-109.713948438" version="1"/>
  <node id="43" lat="27.092314597" lon="-109.713847433" version="1"/>
  <node id="44" lat="27.092314240" lon="-109.713746428" version="1"/>
  <node id="45" lat="27.092313970" lon="-109.713645423" version="1"/>
  <node id="46" lat="27.092313775" lon="-109.713544418" version="1"/>
  <node id="47" lat="27.092319881" lon="-109.713443413" version="1"/>
  <node id="48" lat="27.092323816" lon="-109.713352508" version="1"/>
  <node id="49" lat="27.092332485" lon="-109.713261604" version="1"/>
  <node id="50" lat="27.092342081" lon="-109.713170699" version="1"/>
  <node id="51" lat="27.092353186" lon="-109.713079795" version="1"/>
  <node id="52" lat="27.092365111" lon="-109.712988890" version="1"/>
  <node id="53" lat="27.092375805" lon="-109.712908086" version="1"/>
  <node id="54" lat="27.092387061" lon="-109.712817182" version="1"/>
  <node id="55" lat="27.092400326" lon="-109.712726278" version="1"/>
  <node id="56" lat="27.092411041" lon="-109.712645474" version="1"/>
  <node id="57" lat="27.092422338" lon="-109.712554569" version="1"/>
  <node id="58" lat="27.092432461" lon="-109.712463665" version="1"/>
  <node id="59" lat="27.092442781" lon="-109.712372760" version="1"/>
  <node id="60" lat="27.092451619" lon="-109.712281856" version="1"/>
  <node id="61" lat="27.092460463" lon="-109.712190951" version="1"/>
  <node id="62" lat="27.092469309" lon="-109.712100047" version="1"/>
  <node id="63" lat="27.092476665" lon="-109.712009142" version="1"/>
  <node id="64" lat="27.092483118" lon="-109.711918238" version="1"/>
  <node id="65" lat="27.092489891" lon="-109.711817233" version="1"/>
  <node id="66" lat="27.092498323" lon="-109.711726328" version="1"/>
  <node id="67" lat="27.092499843" lon="-109.711625324" version="1"/>
  <node id="68" lat="27.092507103" lon="-109.711534419" version="1"/>
  <node id="69" lat="27.092507064" lon="-109.711433414" version="1"/>
  <node id="70" lat="27.092507421" lon="-109.711332409" version="1"/>
  <node id="71" lat="27.092515876" lon="-109.711241505" version="1"/>
  <node id="72" lat="27.092515877" lon="-109.711140500" version="1"/>
  <node id="73" lat="27.092515903" lon="-109.711039495" version="1"/>
  <node id="74" lat="27.092522266" lon="-109.710948590" version="1"/>
  <node id="75" lat="27.092524994" lon="-109.710847585" version="1"/>
  <node id="76" lat="27.092533860" lon="-109.710756681" version="1"/>
  <node id="77" lat="27.092538811" lon="-109.710665776" version="1"/>
  <node id="78" lat="27.092546532" lon="-109.710574872" version="1"/>
  <node id="79" lat="27.092556861" lon="-109.710483968" version="1"/>
  <node id="80" lat="27.092567410" lon="-109.710393063" version="1"/>
  <node id="81" lat="27.092580578" lon="-109.710302159" version="1"/>
  <node id="82" lat="27.092591606" lon="-109.710221355" version="1"/>
  <node id="83" lat="27.092605172" lon="-109.710130450" version="1"/>
  <node id="84" lat="27.092618613" lon="-109.710049646" version="1"/>
  <node id="85" lat="27.092634067" lon="-109.709958742" version="1"/>
  <node id="86" lat="27.092646903" lon="-109.709877938" version="1"/>
  <node id="87" lat="27.092661045" lon="-109.709787033" version="1"/>
  <node id="88" lat="27.092672563" lon="-109.709706229" version="1"/>
  <node id="89" lat="27.092684381" lon="-109.709615325" version="1"/>
  <node id="90" lat="27.092695082" lon="-109.709524420" version="1"/>
  <node id="91" lat="27.092704074" lon="-109.709433516" version="1"/>
  <node id="92" lat="27.092708577" lon="-109.709342612" version="1"/>
  <node id="93" lat="27.092714020" lon="-109.709241607" version="1"/>
  <node id="94" lat="27.092714125" lon="-109.709140602" version="1"/>
  <node id="95" lat="27.092714209" lon="-109.709039597" version="1"/>
  <node id="96" lat="27.092711744" lon="-109.708938592" version="1"/>
  <node id="97" lat="27.092705473" lon="-109.708847687" version="1"/>
  <node id="98" lat="27.092697049" lon="-109.708756783" version="1"/>
  <node id="99" lat="27.092688702" lon="-109.708665878" version="1"/>
  <node id="100" lat="27.092679367" lon="-109.708574974" version="1"/>
  <node id="101" lat="27.092666126" lon="-109.708484069" version="1"/>
  <node id="102" lat="27.092654819" lon="-109.708393165" version="1"/>
  <node id="103" lat="27.092642536" lon="-109.708312361" version="1"/>
  <node id="104" lat="27.092628921" lon="-109.708221457" version="1"/>
  <node id="105" lat="27.092617219" lon="-109.708140653" version="1"/>
  <node id="106" lat="27.092601497" lon="-109.708049748" version="1"/>
  <node id="107" lat="27.092587714" lon="-109.707968944" version="1"/>
  <node id="108" lat="27.092573633" lon="-109.707878040" version="1"/>
  <node id="109" lat="27.092559647" lon="-109.707797236" version="1"/>
  <node id="110" lat="27.092545451" lon="-109.707707115" version="1"/>
  <node id="111" lat="27.092533031" lon="-109.707625527" version="1"/>
  <node id="112" lat="27.092518471" lon="-109.707538036" version="1"/>
  <node id="113" lat="27.092506669" lon="-109.707453819" version="1"/>
  <node id="114" lat="27.092493804" lon="-109.707362914" version="1"/>
  <node id="115" lat="27.092481792" lon="-109.707282110" version="1"/>
  <node id="116" lat="27.092468256" lon="-109.707191206" version="1"/>
  <node id="117" lat="27.092455519" lon="-109.707101302" version="1"/>
  <node id="118" lat="27.092444139" lon="-109.707019498" version="1"/>
  <node id="119" lat="27.092430838" lon="-109.706928593" version="1"/>
  <node id="120" lat="27.092418607" lon="-109.706847789" version="1"/>
  <node id="121" lat="27.092404024" lon="-109.706756885" version="1"/>
  <node id="122" lat="27.092392428" lon="-109.706676081" version="1"/>
  <node id="123" lat="27.092378690" lon="-109.706585176" version="1"/>
  <node id="124" lat="27.092364766" lon="-109.706504372" version="1"/>
  <node id="125" lat="27.092351315" lon="-109.706413468" version="1"/>
  <node id="126" lat="27.092338607" lon="-109.706326177" version="1"/>
  <node id="127" lat="27.092323686" lon="-109.706241759" version="1"/>
  <node id="128" lat="27.092311114" lon="-109.706160955" version="1"/>
  <node id="129" lat="27.092297409" lon="-109.706070051" version="1"/>
  <node id="130" lat="27.092284648" lon="-109.705984878" version="1"/>
  <node id="131" lat="27.092270699" lon="-109.705898343" version="1"/>
  <node id="132" lat="27.092257668" lon="-109.705809002" version="1"/>
  <node id="133" lat="27.092244578" lon="-109.705726634" version="1"/>
  <node id="134" lat="27.092231536" lon="-109.705635730" version="1"/>
  <node id="135" lat="27.092221083" lon="-109.705554926" version="1"/>
  <node id="136" lat="27.092207955" lon="-109.705464021" version="1"/>
  <node id="137" lat="27.092195870" lon="-109.705373117" version="1"/>
  <node id="138" lat="27.092185723" lon="-109.705287605" version="1"/>
  <node id="139" lat="27.092175742" lon="-109.705201408" version="1"/>
  <node id="140" lat="27.092165367" lon="-109.705110504" version="1"/>
  <node id="141" lat="27.092153376" lon="-109.705019599" version="1"/>
  <node id="142" lat="27.092142711" lon="-109.704928695" version="1"/>
  <node id="143" lat="27.092136455" lon="-109.704837790" version="1"/>
  <node id="144" lat="27.092124483" lon="-109.704746886" version="1"/>
  <node id="145" lat="27.092120574" lon="-109.704655982" version="1"/>
  <node id="146" lat="27.092108250" lon="-109.704565077" version="1"/>
  <node id="147" lat="27.092103993" lon="-109.704474173" version="1"/>
  <node id="148" lat="27.092099611" lon="-109.704373168" version="1"/>
  <node id="149" lat="27.092095605" lon="-109.704282263" version="1"/>
  <node id="150" lat="27.092091151" lon="-109.704181258" version="1"/>
  <node id="151" lat="27.092086797" lon="-109.704084246" version="1"/>
  <node id="152" lat="27.092082537" lon="-109.703989349" version="1"/>
  <node id="153" lat="27.092077927" lon="-109.703888344" version="1"/>
  <node id="154" lat="27.092073777" lon="-109.703797439" version="1"/>
  <node id="155" lat="27.092069100" lon="-109.703696434" version="1"/>
  <node id="156" lat="27.092068980" lon="-109.703615630" version="1"/>
  <node id="157" lat="27.092069411" lon="-109.703514626" version="1"/>
  <node id="158" lat="27.092066970" lon="-109.703423721" version="1"/>
  <node id="159" lat="27.092069637" lon="-109.703332817" version="1"/>
  <node id="160" lat="27.092072056" lon="-109.703231812" version="1"/>
  <node id="161" lat="27.092073395" lon="-109.703130807" version="1"/>
  <node id="162" lat="27.092077804" lon="-109.703039671" version="1"/>
  <node id="163" lat="27.092082910" lon="-109.702938897" version="1"/>
  <node id="164" lat="27.092090086" lon="-109.702847993" version="1"/>
  <node id="165" lat="27.092097779" lon="-109.702757088" version="1"/>
  <node id="166" lat="27.092106111" lon="-109.702666184" version="1"/>
  <node id="167" lat="27.092115191" lon="-109.702575279" version="1"/>
  <node id="168" lat="27.092125025" lon="-109.702484375" version="1"/>
  <node id="169" lat="27.092136408" lon="-109.702393471" version="1"/>
  <node id="170" lat="27.092147510" lon="-109.702302566" version="1"/>
  <node id="171" lat="27.092159285" lon="-109.702221762" version="1"/>
  <node id="172" lat="27.092172397" lon="-109.702130858" version="1"/>
  <node id="173" lat="27.092185481" lon="-109.702039953" version="1"/>
  <node id="174" lat="27.092197465" lon="-109.701959149" version="1"/>
  <node id="175" lat="27.092211199" lon="-109.701868245" version="1"/>
  <node id="176" lat="27.092222592" lon="-109.701787441" version="1"/>
  <node id="177" lat="27.092237782" lon="-109.701696536" version="1"/>
  <node id="178" lat="27.092250907" lon="-109.701615732" version="1"/>
  <node id="179" lat="27.092264335" lon="-109.701524828" version="1"/>
  <node id="180" lat="27.092280111" lon="-109.701444024" version="1"/>
  <node id="181" lat="27.092293641" lon="-109.701363073" version="1"/>
  <node id="182" lat="27.092308950" lon="-109.701272316" version="1"/>
  <node id="183" lat="27.092324807" lon="-109.701191512" version="1"/>
  <node id="184" lat="27.092338607" lon="-109.701109750" version="1"/>
  <node id="185" lat="27.092355599" lon="-109.701019803" version="1"/>
  <node id="186" lat="27.092369157" lon="-109.700938999" version="1"/>
  <node id="187" lat="27.092381690" lon="-109.700848095" version="1"/>
  <node id="188" lat="27.092392566" lon="-109.700760336" version="1"/>
  <node id="189" lat="27.092399935" lon="-109.700666286" version="1"/>
  <node id="190" lat="27.092402174" lon="-109.700575381" version="1"/>
  <node id="191" lat="27.092403584" lon="-109.700474376" version="1"/>
  <node id="192" lat="27.092392566" lon="-109.700391929" version="1"/>
  <node id="193" lat="27.092382971" lon="-109.700302668" version="1"/>
  <node id="194" lat="27.092370194" lon="-109.700211763" version="1"/>
  <node id="195" lat="27.092356593" lon="-109.700122375" version="1"/>
  <node id="196" lat="27.092343075" lon="-109.700040055" version="1"/>
  <node id="197" lat="27.092328774" lon="-109.699959251" version="1"/>
  <node id="198" lat="27.092314122" lon="-109.699868347" version="1"/>
  <node id="199" lat="27.092300983" lon="-109.699787543" version="1"/>
  <node id="200" lat="27.092286550" lon="-109.699696638" version="1"/>
  <node id="201" lat="27.092274312" lon="-109.699615834" version="1"/>
  <node id="202" lat="27.092260787" lon="-109.699524930" version="1"/>
  <node id="203" lat="27.092248675" lon="-109.699437194" version="1"/>
  <node id="204" lat="27.092237388" lon="-109.699353221" version="1"/>
  <node id="205" lat="27.092225188" lon="-109.699262317" version="1"/>
  <node id="206" lat="27.092213580" lon="-109.699171412" version="1"/>
  <node id="207" lat="27.092202192" lon="-109.699090608" version="1"/>
  <node id="208" lat="27.092192224" lon="-109.698999704" version="1"/>
  <node id="209" lat="27.092182706" lon="-109.698908800" version="1"/>
  <node id="210" lat="27.092172705" lon="-109.698817895" version="1"/>
  <node id="211" lat="27.092165044" lon="-109.698726991" version="1"/>
  <node id="212" lat="27.092160108" lon="-109.698625986" version="1"/>
  <node id="213" lat="27.092155669" lon="-109.698535081" version="1"/>
  <node id="214" lat="27.092150719" lon="-109.698434076" version="1"/>
  <node id="215" lat="27.092146270" lon="-109.698343172" version="1"/>
  <node id="216" lat="27.092141307" lon="-109.698242167" version="1"/>
  <node id="217" lat="27.092136859" lon="-109.698151262" version="1"/>
  <node id="218" lat="27.092133640" lon="-109.698050257" version="1"/>
  <node id="219" lat="27.092135768" lon="-109.697949252" version="1"/>
  <node id="220" lat="27.092136608" lon="-109.697848247" version="1"/>
  <node id="221" lat="27.092137811" lon="-109.697747243" version="1"/>
  <node id="222" lat="27.092141588" lon="-109.697656338" version="1"/>
  <node id="223" lat="27.092145731" lon="-109.697555333" version="1"/>
  <node id="224" lat="27.092150444" lon="-109.697464429" version="1"/>
  <node id="225" lat="27.092155565" lon="-109.697363424" version="1"/>
  <node id="226" lat="27.092160556" lon="-109.697272519" version="1"/>
  <node id="227" lat="27.092165294" lon="-109.697171514" version="1"/>
  <node id="228" lat="27.092169898" lon="-109.697080610" version="1"/>
  <node id="229" lat="27.092174374" lon="-109.696979605" version="1"/>
  <node id="230" lat="27.092178726" lon="-109.696888700" version="1"/>
  <node id="231" lat="27.092182564" lon="-109.696787695" version="1"/>
  <node id="232" lat="27.092183239" lon="-109.696686690" version="1"/>
  <node id="233" lat="27.092186416" lon="-109.696595786" version="1"/>
  <node id="234" lat="27.092189613" lon="-109.696494781" version="1"/>
  <node id="235" lat="27.092192622" lon="-109.696393776" version="1"/>
  <node id="236" lat="27.092196407" lon="-109.696302872" version="1"/>
  <node id="237" lat="27.092201859" lon="-109.696201867" version="1"/>
  <node id="238" lat="27.092205605" lon="-109.696110962" version="1"/>
  <node id="239" lat="27.092210983" lon="-109.696009957" version="1"/>
  <node id="240" lat="27.092215191" lon="-109.695919053" version="1"/>
  <node id="241" lat="27.092220514" lon="-109.695818048" version="1"/>
  <node id="242" lat="27.092225747" lon="-109.695727143" version="1"/>
  <node id="243" lat="27.092227098" lon="-109.695626138" version="1"/>
  <node id="244" lat="27.092230552" lon="-109.695545334" version="1"/>
  <node id="245" lat="27.092228306" lon="-109.695444330" version="1"/>
  <node id="246" lat="27.092225970" lon="-109.695343325" version="1"/>
  <node id="247" lat="27.092218530" lon="-109.695252420" version="1"/>
  <node id="248" lat="27.092212451" lon="-109.695161516" version="1"/>
  <node id="249" lat="27.092201326" lon="-109.695070611" version="1"/>
  <node id="250" lat="27.092190092" lon="-109.694979707" version="1"/>
  <node id="251" lat="27.092176729" lon="-109.694890327" version="1"/>
  <node id="252" lat="27.092162903" lon="-109.694807998" version="1"/>
  <node id="253" lat="27.092147758" lon="-109.694727194" version="1"/>
  <node id="254" lat="27.092131763" lon="-109.694639517" version="1"/>
  <node id="255" lat="27.092114488" lon="-109.694555486" version="1"/>
  <node id="256" lat="27.092097877" lon="-109.694474682" version="1"/>
  <node id="257" lat="27.092081561" lon="-109.694393878" version="1"/>
  <node id="258" lat="27.092063574" lon="-109.694313074" version="1"/>
  <node id="259" lat="27.092046516" lon="-109.694232270" version="1"/>
  <node id="260" lat="27.092030298" lon="-109.694151466" version="1"/>
  <node id="261" lat="27.092013642" lon="-109.694070662" version="1"/>
  <node id="262" lat="27.091996865" lon="-109.693983876" version="1"/>
  <node id="263" lat="27.091980855" lon="-109.693898954" version="1"/>
  <node id="264" lat="27.091966898" lon="-109.693818150" version="1"/>
  <node id="265" lat="27.091951899" lon="-109.693728404" version="1"/>
  <node id="266" lat="27.091939048" lon="-109.693646441" version="1"/>
  <node id="267" lat="27.091925496" lon="-109.693555537" version="1"/>
  <node id="268" lat="27.091915022" lon="-109.693474733" version="1"/>
  <node id="269" lat="27.091903947" lon="-109.693383828" version="1"/>
  <node id="270" lat="27.091894315" lon="-109.693292924" version="1"/>
  <node id="271" lat="27.091886754" lon="-109.693202019" version="1"/>
  <node id="272" lat="27.091879954" lon="-109.693109398" version="1"/>
  <node id="273" lat="27.091875694" lon="-109.693010110" version="1"/>
  <node id="274" lat="27.091869405" lon="-109.692919206" version="1"/>
  <node id="275" lat="27.091868402" lon="-109.692818201" version="1"/>
  <node id="276" lat="27.091868012" lon="-109.692717196" version="1"/>
  <node id="277" lat="27.091867859" lon="-109.692616191" version="1"/>
  <node id="278" lat="27.091868942" lon="-109.692515186" version="1"/>
  <node id="279" lat="27.091876153" lon="-109.692424281" version="1"/>
  <node id="280" lat="27.091877327" lon="-109.692323276" version="1"/>
  <node id="281" lat="27.091881175" lon="-109.692232372" version="1"/>
  <node id="282" lat="27.091887525" lon="-109.692131367" version="1"/>
  <node id="283" lat="27.091893119" lon="-109.692040462" version="1"/>
  <node id="284" lat="27.091898463" lon="-109.691949558" version="1"/>
  <node id="285" lat="27.091906933" lon="-109.691848905" version="1"/>
  <node id="286" lat="27.091910254" lon="-109.691757649" version="1"/>
  <node id="287" lat="27.091918716" lon="-109.691666744" version="1"/>
  <node id="288" lat="27.091921153" lon="-109.691565739" version="1"/>
  <node id="289" lat="27.091929601" lon="-109.691474835" version="1"/>
  <node id="290" lat="27.091931865" lon="-109.691373830" version="1"/>
  <node id="291" lat="27.091936760" lon="-109.691282925" version="1"/>
  <node id="292" lat="27.091943797" lon="-109.691192021" version="1"/>
  <node id="293" lat="27.091945674" lon="-109.691091016" version="1"/>
  <node id="294" lat="27.091940673" lon="-109.691000111" version="1"/>
  <node id="295" lat="27.091940662" lon="-109.690899106" version="1"/>
  <node id="296" lat="27.091936668" lon="-109.690798102" version="1"/>
  <node id="297" lat="27.091935660" lon="-109.690697097" version="1"/>
  <node id="298" lat="27.091930508" lon="-109.690606192" version="1"/>
  <node id="299" lat="27.091927263" lon="-109.690505187" version="1"/>
  <node id="300" lat="27.091925495" lon="-109.690404182" version="1"/>
  <node id="301" lat="27.091920531" lon="-109.690313278" version="1"/>
  <node id="302" lat="27.091921222" lon="-109.690212273" version="1"/>
  <node id="303" lat="27.091916245" lon="-109.690111268" version="1"/>
  <node id="304" lat="27.091918384" lon="-109.690010263" version="1"/>
  <node id="305" lat="27.091915967" lon="-109.689909258" version="1"/>
  <node id="306" lat="27.091915167" lon="-109.689818353" version="1"/>
  <node id="307" lat="27.091917928" lon="-109.689727449" version="1"/>
  <node id="308" lat="27.091921077" lon="-109.689626444" version="1"/>
  <node id="309" lat="27.091924303" lon="-109.689525439" version="1"/>
  <node id="310" lat="27.091927292" lon="-109.689434535" version="1"/>
  <node id="311" lat="27.091930692" lon="-109.689333530" version="1"/>
  <node id="312" lat="27.091933913" lon="-109.689239869" version="1"/>
  <node id="313" lat="27.091937395" lon="-109.689141620" version="1"/>
  <node id="314" lat="27.091941055" lon="-109.689040615" version="1"/>
  <node id="315" lat="27.091944436" lon="-109.688949711" version="1"/>
  <node id="316" lat="27.091948300" lon="-109.688848706" version="1"/>
  <node id="317" lat="27.091954777" lon="-109.688757801" version="1"/>
  <node id="318" lat="27.091964434" lon="-109.688666897" version="1"/>
  <node id="319" lat="27.091968627" lon="-109.688565892" version="1"/>
  <node id="320" lat="27.091972510" lon="-109.688474988" version="1"/>
  <node id="321" lat="27.091976930" lon="-109.688373983" version="1"/>
  <node id="322" lat="27.091981427" lon="-109.688283078" version="1"/>
  <node id="323" lat="27.091991937" lon="-109.688192174" version="1"/>
  <node id="324" lat="27.091998335" lon="-109.688101269" version="1"/>
  <node id="325" lat="27.092003148" lon="-109.688000264" version="1"/>
  <node id="326" lat="27.092010605" lon="-109.687909360" version="1"/>
  <node id="327" lat="27.092020951" lon="-109.687818455" version="1"/>
  <node id="328" lat="27.092025481" lon="-109.687727551" version="1"/>
  <node id="329" lat="27.092031355" lon="-109.687626546" version="1"/>
  <node id="330" lat="27.092041831" lon="-109.687545188" version="1"/>
  <node id="331" lat="27.092048847" lon="-109.687444737" version="1"/>
  <node id="332" lat="27.092053580" lon="-109.687353833" version="1"/>
  <node id="333" lat="27.092060776" lon="-109.687262928" version="1"/>
  <node id="334" lat="27.092072092" lon="-109.687172024" version="1"/>
  <node id="335" lat="27.092077462" lon="-109.687071019" version="1"/>
  <node id="336" lat="27.092084163" lon="-109.686980114" version="1"/>
  <node id="337" lat="27.092095791" lon="-109.686896348" version="1"/>
  <node id="338" lat="27.092101170" lon="-109.686798305" version="1"/>
  <node id="339" lat="27.092111242" lon="-109.686707401" version="1"/>
  <node id="340" lat="27.092120061" lon="-109.686616496" version="1"/>
  <node id="341" lat="27.092130255" lon="-109.686525592" version="1"/>
  <node id="342" lat="27.092139848" lon="-109.686434687" version="1"/>
  <node id="343" lat="27.092144642" lon="-109.686394285" version="1"/>
  <node id="344" lat="27.085527752" lon="-109.686394285" version="1"/>
  <node id="345" lat="27.085512766" lon="-109.686430116" version="1"/>
  <node id="346" lat="27.085485786" lon="-109.686495679" version="1"/>
  <node id="347" lat="27.085457424" lon="-109.686565994" version="1"/>
  <node id="348" lat="27.085428348" lon="-109.686636697" version="1"/>
  <node id="349" lat="27.085399968" lon="-109.686707401" version="1"/>
  <node id="350" lat="27.085372271" lon="-109.686778104" version="1"/>
  <node id="351" lat="27.085345252" lon="-109.686848808" version="1"/>
  <node id="352" lat="27.085318349" lon="-109.686919511" version="1"/>
  <node id="353" lat="27.085291085" lon="-109.686990215" version="1"/>
  <node id="354" lat="27.085264499" lon="-109.687060918" version="1"/>
  <node id="355" lat="27.085238586" lon="-109.687131622" version="1"/>
  <node id="356" lat="27.085213339" lon="-109.687202325" version="1"/>
  <node id="357" lat="27.085187921" lon="-109.687273029" version="1"/>
  <node id="358" lat="27.085162031" lon="-109.687344345" version="1"/>
  <node id="359" lat="27.085135051" lon="-109.687420721" version="1"/>
  <node id="360" lat="27.085109464" lon="-109.687495239" version="1"/>
  <node id="361" lat="27.085085621" lon="-109.687565943" version="1"/>
  <node id="362" lat="27.085061020" lon="-109.687636646" version="1"/>
  <node id="363" lat="27.085036126" lon="-109.687710207" version="1"/>
  <node id="364" lat="27.085010504" lon="-109.687788154" version="1"/>
  <node id="365" lat="27.084987942" lon="-109.687858857" version="1"/>
  <node id="366" lat="27.084964180" lon="-109.687931467" version="1"/>
  <node id="367" lat="27.084938703" lon="-109.688010365" version="1"/>
  <node id="368" lat="27.084916556" lon="-109.688081068" version="1"/>
  <node id="369" lat="27.084892235" lon="-109.688161217" version="1"/>
  <node id="370" lat="27.084871251" lon="-109.688232576" version="1"/>
  <node id="371" lat="27.084848277" lon="-109.688313380" version="1"/>
  <node id="372" lat="27.084828673" lon="-109.688384083" version="1"/>
  <node id="373" lat="27.084805187" lon="-109.688464887" version="1"/>
  <node id="374" lat="27.084784316" lon="-109.688536599" version="1"/>
  <node id="375" lat="27.084761845" lon="-109.688616394" version="1"/>
  <node id="376" lat="27.084739931" lon="-109.688697198" version="1"/>
  <node id="377" lat="27.084721364" lon="-109.688768151" version="1"/>
  <node id="378" lat="27.084701038" lon="-109.688848706" version="1"/>
  <node id="379" lat="27.084681208" lon="-109.688929510" version="1"/>
  <node id="380" lat="27.084661775" lon="-109.689010314" version="1"/>
  <node id="381" lat="27.084642739" lon="-109.689091118" version="1"/>
  <node id="382" lat="27.084624098" lon="-109.689171922" version="1"/>
  <node id="383" lat="27.084605855" lon="-109.689252726" version="1"/>
  <node id="384" lat="27.084588011" lon="-109.689333530" version="1"/>
  <node id="385" lat="27.084570567" lon="-109.689414334" version="1"/>
  <node id="386" lat="27.084553526" lon="-109.689495138" version="1"/>
  <node id="387" lat="27.084536893" lon="-109.689575942" version="1"/>
  <node id="388" lat="27.084520669" lon="-109.689656746" version="1"/>
  <node id="389" lat="27.084504860" lon="-109.689737549" version="1"/>
  <node id="390" lat="27.084487566" lon="-109.689828454" version="1"/>
  <node id="391" lat="27.084472870" lon="-109.689909258" version="1"/>
  <node id="392" lat="27.084459000" lon="-109.689990062" version="1"/>
  <node id="393" lat="27.084444360" lon="-109.690080966" version="1"/>
  <node id="394" lat="27.084432205" lon="-109.690161770" version="1"/>
  <node id="395" lat="27.084419485" lon="-109.690252675" version="1"/>
  <node id="396" lat="27.084407474" lon="-109.690343579" version="1"/>
  <node id="397" lat="27.084396686" lon="-109.690424383" version="1"/>
  <node id="398" lat="27.084385497" lon="-109.690515288" version="1"/>
  <node id="399" lat="27.084375312" lon="-109.690606192" version="1"/>
  <node id="400" lat="27.084366058" lon="-109.690697097" version="1"/>
  <node id="401" lat="27.084356879" lon="-109.690788001" version="1"/>
  <node id="402" lat="27.084348689" lon="-109.690878905" version="1"/>
  <node id="403" lat="27.084341450" lon="-109.690969810" version="1"/>
  <node id="404" lat="27.084334415" lon="-109.691060714" version="1"/>
  <node id="405" lat="27.084327353" lon="-109.691161719" version="1"/>
  <node id="406" lat="27.084316686" lon="-109.691252624" version="1"/>
  <node id="407" lat="27.084306365" lon="-109.691333428" version="1"/>
  <node id="408" lat="27.084294829" lon="-109.691424332" version="1"/>
  <node id="409" lat="27.084283813" lon="-109.691515237" version="1"/>
  <node id="410" lat="27.084273376" lon="-109.691606141" version="1"/>
  <node id="411" lat="27.084263680" lon="-109.691697046" version="1"/>
  <node id="412" lat="27.084254343" lon="-109.691787950" version="1"/>
  <node id="413" lat="27.084246013" lon="-109.691878855" version="1"/>
  <node id="414" lat="27.084238689" lon="-109.691969759" version="1"/>
  <node id="415" lat="27.084232107" lon="-109.692060663" version="1"/>
  <node id="416" lat="27.084225517" lon="-109.692151568" version="1"/>
  <node id="417" lat="27.084219361" lon="-109.692252573" version="1"/>
  <node id="418" lat="27.084214871" lon="-109.692343477" version="1"/>
  <node id="419" lat="27.084211051" lon="-109.692444482" version="1"/>
  <node id="420" lat="27.084208660" lon="-109.692535387" version="1"/>
  <node id="421" lat="27.084207002" lon="-109.692636392" version="1"/>
  <node id="422" lat="27.084205997" lon="-109.692737397" version="1"/>
  <node id="423" lat="27.084205613" lon="-109.692838402" version="1"/>
  <node id="424" lat="27.084205922" lon="-109.692939407" version="1"/>
  <node id="425" lat="27.084207363" lon="-109.693040412" version="1"/>
  <node id="426" lat="27.084209688" lon="-109.693131316" version="1"/>
  <node id="427" lat="27.084213405" lon="-109.693232321" version="1"/>
  <node id="428" lat="27.084217794" lon="-109.693323225" version="1"/>
  <node id="429" lat="27.084223798" lon="-109.693424230" version="1"/>
  <node id="430" lat="27.084230004" lon="-109.693515135" version="1"/>
  <node id="431" lat="27.084236421" lon="-109.693606039" version="1"/>
  <node id="432" lat="27.084244699" lon="-109.693707044" version="1"/>
  <node id="433" lat="27.084253185" lon="-109.693797949" version="1"/>
  <node id="434" lat="27.084262668" lon="-109.693888853" version="1"/>
  <node id="435" lat="27.084271747" lon="-109.693969657" version="1"/>
  <node id="436" lat="27.084282454" lon="-109.694060562" version="1"/>
  <node id="437" lat="27.084294163" lon="-109.694151466" version="1"/>
  <node id="438" lat="27.084306710" lon="-109.694242371" version="1"/>
  <node id="439" lat="27.084318369" lon="-109.694323175" version="1"/>
  <node id="440" lat="27.084332436" lon="-109.694414079" version="1"/>
  <node id="441" lat="27.084345789" lon="-109.694494883" version="1"/>
  <node id="442" lat="27.084361546" lon="-109.694585787" version="1"/>
  <node id="443" lat="27.084376210" lon="-109.694666591" version="1"/>
  <node id="444" lat="27.084391698" lon="-109.694747395" version="1"/>
  <node id="445" lat="27.084407800" lon="-109.694828199" version="1"/>
  <node id="446" lat="27.084424588" lon="-109.694910225" version="1"/>
  <node id="447" lat="27.084442574" lon="-109.694994212" version="1"/>
  <node id="448" lat="27.084460561" lon="-109.695074227" version="1"/>
  <node id="449" lat="27.084478628" lon="-109.695151415" version="1"/>
  <node id="450" lat="27.084497996" lon="-109.695232219" version="1"/>
  <node id="451" lat="27.084517842" lon="-109.695313023" version="1"/>
  <node id="452" lat="27.084538497" lon="-109.695393827" version="1"/>
  <node id="453" lat="27.084559486" lon="-109.695472657" version="1"/>
  <node id="454" lat="27.084579080" lon="-109.695545334" version="1"/>
  <node id="455" lat="27.084601712" lon="-109.695626138" version="1"/>
  <node id="456" lat="27.084622439" lon="-109.695697423" version="1"/>
  <node id="457" lat="27.084638607" lon="-109.695787746" version="1"/>
  <node id="458" lat="27.084649974" lon="-109.695868550" version="1"/>
  <node id="459" lat="27.084663393" lon="-109.695959455" version="1"/>
  <node id="460" lat="27.084676398" lon="-109.696041545" version="1"/>
  <node id="461" lat="27.084690889" lon="-109.696131163" version="1"/>
  <node id="462" lat="27.084704577" lon="-109.696211967" version="1"/>
  <node id="463" lat="27.084718812" lon="-109.696302872" version="1"/>
  <node id="464" lat="27.084731609" lon="-109.696383676" version="1"/>
  <node id="465" lat="27.084745953" lon="-109.696474580" version="1"/>
  <node id="466" lat="27.084759137" lon="-109.696555384" version="1"/>
  <node id="467" lat="27.084774389" lon="-109.696646289" version="1"/>
  <node id="468" lat="27.084788761" lon="-109.696727092" version="1"/>
  <node id="469" lat="27.084803598" lon="-109.696807896" version="1"/>
  <node id="470" lat="27.084820289" lon="-109.696896307" version="1"/>
  <node id="471" lat="27.084836537" lon="-109.696979605" version="1"/>
  <node id="472" lat="27.084853099" lon="-109.697060409" version="1"/>
  <node id="473" lat="27.084870452" lon="-109.697141213" version="1"/>
  <node id="474" lat="27.084888369" lon="-109.697222017" version="1"/>
  <node id="475" lat="27.084906608" lon="-109.697302821" version="1"/>
  <node id="476" lat="27.084925639" lon="-109.697383625" version="1"/>
  <node id="477" lat="27.084945165" lon="-109.697464429" version="1"/>
  <node id="478" lat="27.084964180" lon="-109.697542095" version="1"/>
  <node id="479" lat="27.084982927" lon="-109.697615936" version="1"/>
  <node id="480" lat="27.085004198" lon="-109.697696740" version="1"/>
  <node id="481" lat="27.085026277" lon="-109.697777544" version="1"/>
  <node id="482" lat="27.085046247" lon="-109.697848247" version="1"/>
  <node id="483" lat="27.085069825" lon="-109.697929051" version="1"/>
  <node id="484" lat="27.085091128" lon="-109.697999755" version="1"/>
  <node id="485" lat="27.085116238" lon="-109.698080559" version="1"/>
  <node id="486" lat="27.085138823" lon="-109.698151262" version="1"/>
  <node id="487" lat="27.085162031" lon="-109.698222874" version="1"/>
  <node id="488" lat="27.085188249" lon="-109.698302770" version="1"/>
  <node id="489" lat="27.085211743" lon="-109.698373473" version="1"/>
  <node id="490" lat="27.085235527" lon="-109.698444177" version="1"/>
  <node id="491" lat="27.085260956" lon="-109.698518865" version="1"/>
  <node id="492" lat="27.085287429" lon="-109.698595684" version="1"/>
  <node id="493" lat="27.085312081" lon="-109.698666388" version="1"/>
  <node id="494" lat="27.085337018" lon="-109.698737091" version="1"/>
  <node id="495" lat="27.085362426" lon="-109.698807795" version="1"/>
  <node id="496" lat="27.085388495" lon="-109.698878498" version="1"/>
  <node id="497" lat="27.085415233" lon="-109.698949202" version="1"/>
  <node id="498" lat="27.085442645" lon="-109.699019905" version="1"/>
  <node id="499" lat="27.085470738" lon="-109.699090608" version="1"/>
  <node id="500" lat="27.085499522" lon="-109.699161312" version="1"/>
  <node id="501" lat="27.085529007" lon="-109.699232015" version="1"/>
  <node id="502" lat="27.085557732" lon="-109.699299324" version="1"/>
  <node id="503" lat="27.085585267" lon="-109.699363322" version="1"/>
  <node id="504" lat="27.085615814" lon="-109.699434025" version="1"/>
  <node id="505" lat="27.085647082" lon="-109.699504729" version="1"/>
  <node id="506" lat="27.085674643" lon="-109.699565766" version="1"/>
  <node id="507" lat="27.085706543" lon="-109.699636035" version="1"/>
  <node id="508" lat="27.085737596" lon="-109.699703578" version="1"/>
  <node id="509" lat="27.085767501" lon="-109.699767342" version="1"/>
  <node id="510" lat="27.085800548" lon="-109.699836707" version="1"/>
  <node id="511" lat="27.085830188" lon="-109.699898648" version="1"/>
  <node id="512" lat="27.085863501" lon="-109.699966866" version="1"/>
  <node id="513" lat="27.085894541" lon="-109.700029955" version="1"/>
  <node id="514" lat="27.085926453" lon="-109.700094502" version="1"/>
  <node id="515" lat="27.085948849" lon="-109.700171361" version="1"/>
  <node id="516" lat="27.085971419" lon="-109.700250976" version="1"/>
  <node id="517" lat="27.085991680" lon="-109.700322869" version="1"/>
  <node id="518" lat="27.086015094" lon="-109.700403673" version="1"/>
  <node id="519" lat="27.086035830" lon="-109.700474376" version="1"/>
  <node id="520" lat="27.086059740" lon="-109.700555180" version="1"/>
  <node id="521" lat="27.086080768" lon="-109.700625884" version="1"/>
  <node id="522" lat="27.086104902" lon="-109.700706688" version="1"/>
  <node id="523" lat="27.086126185" lon="-109.700777391" version="1"/>
  <node id="524" lat="27.086150776" lon="-109.700858195" version="1"/>
  <node id="525" lat="27.086172813" lon="-109.700928899" version="1"/>
  <node id="526" lat="27.086196249" lon="-109.701002380" version="1"/>
  <node id="527" lat="27.086221265" lon="-109.701080406" version="1"/>
  <node id="528" lat="27.086244050" lon="-109.701151110" version="1"/>
  <node id="529" lat="27.086268195" lon="-109.701225653" version="1"/>
  <node id="530" lat="27.086293580" lon="-109.701302617" version="1"/>
  <node id="531" lat="27.086317413" lon="-109.701373320" version="1"/>
  <node id="532" lat="27.086341746" lon="-109.701444024" version="1"/>
  <node id="533" lat="27.086367120" lon="-109.701516693" version="1"/>
  <node id="534" lat="27.086394100" lon="-109.701593785" version="1"/>
  <node id="535" lat="27.086419508" lon="-109.701666235" version="1"/>
  <node id="536" lat="27.086444349" lon="-109.701736938" version="1"/>
  <node id="537" lat="27.086469538" lon="-109.701807642" version="1"/>
  <node id="538" lat="27.086495220" lon="-109.701878345" version="1"/>
  <node id="539" lat="27.086521321" lon="-109.701949049" version="1"/>
  <node id="540" lat="27.086547452" lon="-109.702019752" version="1"/>
  <node id="541" lat="27.086573964" lon="-109.702091445" version="1"/>
  <node id="542" lat="27.086600943" lon="-109.702163037" version="1"/>
  <node id="543" lat="27.086627923" lon="-109.702233314" version="1"/>
  <node id="544" lat="27.086654995" lon="-109.702302566" version="1"/>
  <node id="545" lat="27.086682706" lon="-109.702373270" version="1"/>
  <node id="546" lat="27.086710481" lon="-109.702443973" version="1"/>
  <node id="547" lat="27.086738228" lon="-109.702514676" version="1"/>
  <node id="548" lat="27.086766477" lon="-109.702585380" version="1"/>
  <node id="549" lat="27.086795232" lon="-109.702656083" version="1"/>
  <node id="550" lat="27.086824502" lon="-109.702726787" version="1"/>
  <node id="551" lat="27.086852753" lon="-109.702796050" version="1"/>
  <node id="552" lat="27.086879733" lon="-109.702861217" version="1"/>
  <node id="553" lat="27.086908163" lon="-109.702928797" version="1"/>
  <node id="554" lat="27.086937525" lon="-109.702999500" version="1"/>
  <node id="555" lat="27.086967103" lon="-109.703070204" version="1"/>
  <node id="556" lat="27.086996644" lon="-109.703139621" version="1"/>
  <node id="557" lat="27.087023624" lon="-109.703202044" version="1"/>
  <node id="558" lat="27.087054424" lon="-109.703272214" version="1"/>
  <node id="559" lat="27.087084428" lon="-109.703342917" version="1"/>
  <node id="560" lat="27.087113556" lon="-109.703411116" version="1"/>
  <node id="561" lat="27.087140923" lon="-109.703474224" version="1"/>
  <node id="562" lat="27.087172061" lon="-109.703544927" version="1"/>
  <node id="563" lat="27.087203488" lon="-109.703615063" version="1"/>
  <node id="564" lat="27.087231309" lon="-109.703676233" version="1"/>
  <node id="565" lat="27.087263718" lon="-109.703746937" version="1"/>
  <node id="566" lat="27.087293420" lon="-109.703811958" version="1"/>
  <node id="567" lat="27.087323557" lon="-109.703878243" version="1"/>
  <node id="568" lat="27.087355569" lon="-109.703948947" version="1"/>
  <node id="569" lat="27.087383352" lon="-109.704010612" version="1"/>
  <node id="570" lat="27.087414557" lon="-109.704080253" version="1"/>
  <node id="571" lat="27.087446081" lon="-109.704150957" version="1"/>
  <node id="572" lat="27.087473284" lon="-109.704212334" version="1"/>
  <node id="573" lat="27.087504085" lon="-109.704282263" version="1"/>
  <node id="574" lat="27.087535040" lon="-109.704352967" version="1"/>
  <node id="575" lat="27.087563216" lon="-109.704417764" version="1"/>
  <node id="576" lat="27.087591933" lon="-109.704484273" version="1"/>
  <node id="577" lat="27.087622244" lon="-109.704554977" version="1"/>
  <node id="578" lat="27.087652804" lon="-109.704625680" version="1"/>
  <node id="579" lat="27.087680128" lon="-109.704687929" version="1"/>
  <node id="580" lat="27.087710904" lon="-109.704756986" version="1"/>
  <node id="581" lat="27.087742967" lon="-109.704827690" version="1"/>
  <node id="582" lat="27.087770869" lon="-109.704888293" version="1"/>
  <node id="583" lat="27.087802898" lon="-109.704958996" version="1"/>
  <node id="584" lat="27.087833012" lon="-109.705026753" version="1"/>
  <node id="585" lat="27.087861685" lon="-109.705090303" version="1"/>
  <node id="586" lat="27.087894110" lon="-109.705161006" version="1"/>
  <node id="587" lat="27.087922944" lon="-109.705224879" version="1"/>
  <node id="588" lat="27.087953240" lon="-109.705292313" version="1"/>
  <node id="589" lat="27.087985558" lon="-109.705363016" version="1"/>
  <node id="590" lat="27.088012876" lon="-109.705424197" version="1"/>
  <node id="591" lat="27.088044448" lon="-109.705494323" version="1"/>
  <node id="592" lat="27.088075829" lon="-109.705564616" version="1"/>
  <node id="593" lat="27.088103018" lon="-109.705625629" version="1"/>
  <node id="594" lat="27.088134516" lon="-109.705696333" version="1"/>
  <node id="595" lat="27.088165761" lon="-109.705766989" version="1"/>
  <node id="596" lat="27.088192740" lon="-109.705829541" version="1"/>
  <node id="597" lat="27.088222887" lon="-109.705898343" version="1"/>
  <node id="598" lat="27.088253441" lon="-109.705969046" version="1"/>
  <node id="599" lat="27.088282672" lon="-109.706035975" version="1"/>
  <node id="600" lat="27.088310182" lon="-109.706100352" version="1"/>
  <node id="601" lat="27.088339787" lon="-109.706171056" version="1"/>
  <node id="602" lat="27.088369646" lon="-109.706241759" version="1"/>
  <node id="603" lat="27.088399266" lon="-109.706312463" version="1"/>
  <node id="604" lat="27.088426564" lon="-109.706376862" version="1"/>
  <node id="605" lat="27.088453598" lon="-109.706443769" version="1"/>
  <node id="606" lat="27.088482683" lon="-109.706514473" version="1"/>
  <node id="607" lat="27.088511431" lon="-109.706585176" version="1"/>
  <node id="608" lat="27.088539702" lon="-109.706655880" version="1"/>
  <node id="609" lat="27.088567455" lon="-109.706726583" version="1"/>
  <node id="610" lat="27.088594706" lon="-109.706797287" version="1"/>
  <node id="611" lat="27.088621566" lon="-109.706867990" version="1"/>
  <node id="612" lat="27.088648936" lon="-109.706938694" version="1"/>
  <node id="613" lat="27.088674671" lon="-109.707009397" version="1"/>
  <node id="614" lat="27.088699890" lon="-109.707080100" version="1"/>
  <node id="615" lat="27.088724986" lon="-109.707150804" version="1"/>
  <node id="616" lat="27.088750319" lon="-109.707222349" version="1"/>
  <node id="617" lat="27.088777015" lon="-109.707302311" version="1"/>
  <node id="618" lat="27.088800009" lon="-109.707373015" version="1"/>
  <node id="619" lat="27.088823300" lon="-109.707443718" version="1"/>
  <node id="620" lat="27.088848746" lon="-109.707524522" version="1"/>
  <node id="621" lat="27.088869980" lon="-109.707595226" version="1"/>
  <node id="622" lat="27.088893545" lon="-109.707676030" version="1"/>
  <node id="623" lat="27.088913580" lon="-109.707746733" version="1"/>
  <node id="624" lat="27.088935771" lon="-109.707827537" version="1"/>
  <node id="625" lat="27.088957163" lon="-109.707907955" version="1"/>
  <node id="626" lat="27.088975427" lon="-109.707979045" version="1"/>
  <node id="627" lat="27.088996424" lon="-109.708059849" version="1"/>
  <node id="628" lat="27.089016249" lon="-109.708140653" version="1"/>
  <node id="629" lat="27.089036314" lon="-109.708221457" version="1"/>
  <node id="630" lat="27.089055743" lon="-109.708302260" version="1"/>
  <node id="631" lat="27.089074074" lon="-109.708381291" version="1"/>
  <node id="632" lat="27.089092061" lon="-109.708461724" version="1"/>
  <node id="633" lat="27.089110047" lon="-109.708540558" version="1"/>
  <node id="634" lat="27.089127587" lon="-109.708625476" version="1"/>
  <node id="635" lat="27.089144343" lon="-109.708706280" version="1"/>
  <node id="636" lat="27.089160121" lon="-109.708787084" version="1"/>
  <node id="637" lat="27.089175113" lon="-109.708867888" version="1"/>
  <node id="638" lat="27.089190040" lon="-109.708958793" version="1"/>
  <node id="639" lat="27.089201890" lon="-109.709039597" version="1"/>
  <node id="640" lat="27.089211513" lon="-109.709130501" version="1"/>
  <node id="641" lat="27.089198570" lon="-109.709211305" version="1"/>
  <node id="642" lat="27.089184062" lon="-109.709302210" version="1"/>
  <node id="643" lat="27.089171375" lon="-109.709383014" version="1"/>
  <node id="644" lat="27.089156662" lon="-109.709473918" version="1"/>
  <node id="645" lat="27.089144750" lon="-109.709554722" version="1"/>
  <node id="646" lat="27.089131480" lon="-109.709645626" version="1"/>
  <node id="647" lat="27.089119503" lon="-109.709736531" version="1"/>
  <node id="648" lat="27.089108217" lon="-109.709817335" version="1"/>
  <node id="649" lat="27.089097008" lon="-109.709908239" version="1"/>
  <node id="650" lat="27.089087049" lon="-109.709999144" version="1"/>
  <node id="651" lat="27.089077124" lon="-109.710090048" version="1"/>
  <node id="652" lat="27.089068042" lon="-109.710180953" version="1"/>
  <node id="653" lat="27.089060206" lon="-109.710271857" version="1"/>
  <node id="654" lat="27.089052645" lon="-109.710362762" version="1"/>
  <node id="655" lat="27.089046275" lon="-109.710453666" version="1"/>
  <node id="656" lat="27.089039230" lon="-109.710554671" version="1"/>
  <node id="657" lat="27.089034654" lon="-109.710645575" version="1"/>
  <node id="658" lat="27.089029450" lon="-109.710746580" version="1"/>
  <node id="659" lat="27.089025229" lon="-109.710837485" version="1"/>
  <node id="660" lat="27.089022511" lon="-109.710938490" version="1"/>
  <node id="661" lat="27.089021830" lon="-109.711039495" version="1"/>
  <node id="662" lat="27.089018008" lon="-109.711130399" version="1"/>
  <node id="663" lat="27.089014628" lon="-109.711231404" version="1"/>
  <node id="664" lat="27.089013306" lon="-109.711332409" version="1"/>
  <node id="665" lat="27.089010371" lon="-109.711423314" version="1"/>
  <node id="666" lat="27.089005500" lon="-109.711524319" version="1"/>
  <node id="667" lat="27.088999379" lon="-109.711615223" version="1"/>
  <node id="668" lat="27.088991781" lon="-109.711706127" version="1"/>
  <node id="669" lat="27.088982931" lon="-109.711797032" version="1"/>
  <node id="670" lat="27.088974082" lon="-109.711887936" version="1"/>
  <node id="671" lat="27.088964764" lon="-109.711978841" version="1"/>
  <node id="672" lat="27.088953282" lon="-109.712069745" version="1"/>
  <node id="673" lat="27.088941278" lon="-109.712160650" version="1"/>
  <node id="674" lat="27.088930183" lon="-109.712241608" version="1"/>
  <node id="675" lat="27.088917844" lon="-109.712332358" version="1"/>
  <node id="676" lat="27.088906236" lon="-109.712423263" version="1"/>
  <node id="677" lat="27.088894778" lon="-109.712514167" version="1"/>
  <node id="678" lat="27.088884633" lon="-109.712594971" version="1"/>
  <node id="679" lat="27.088873965" lon="-109.712685876" version="1"/>
  <node id="680" lat="27.088864040" lon="-109.712776780" version="1"/>
  <node id="681" lat="27.088855210" lon="-109.712867684" version="1"/>
  <node id="682" lat="27.088846456" lon="-109.712958589" version="1"/>
  <node id="683" lat="27.088839410" lon="-109.713049493" version="1"/>
  <node id="684" lat="27.088832816" lon="-109.713150498" version="1"/>
  <node id="685" lat="27.088826905" lon="-109.713241403" version="1"/>
  <node id="686" lat="27.088822347" lon="-109.713342408" version="1"/>
  <node id="687" lat="27.088820003" lon="-109.713433312" version="1"/>
  <node id="688" lat="27.088819379" lon="-109.713534317" version="1"/>
  <node id="689" lat="27.088819617" lon="-109.713635322" version="1"/>
  <node id="690" lat="27.088819879" lon="-109.713736327" version="1"/>
  <node id="691" lat="27.088820163" lon="-109.713837332" version="1"/>
  <node id="692" lat="27.088820470" lon="-109.713938337" version="1"/>
  <node id="693" lat="27.088820960" lon="-109.714039342" version="1"/>
  <node id="694" lat="27.088822842" lon="-109.714130246" version="1"/>
  <node id="695" lat="27.088826886" lon="-109.714231251" version="1"/>
  <node id="696" lat="27.088832318" lon="-109.714322156" version="1"/>
  <node id="697" lat="27.088840251" lon="-109.714422436" version="1"/>
  <node id="698" lat="27.088847031" lon="-109.714514065" version="1"/>
  <node id="699" lat="27.088855441" lon="-109.714604970" version="1"/>
  <node id="700" lat="27.088864659" lon="-109.714695874" version="1"/>
  <node id="701" lat="27.088874760" lon="-109.714786779" version="1"/>
  <node id="702" lat="27.088885217" lon="-109.714868251" version="1"/>
  <node id="703" lat="27.088896773" lon="-109.714958487" version="1"/>
  <node id="704" lat="27.088909142" lon="-109.715049392" version="1"/>
  <node id="705" lat="27.088921238" lon="-109.715130196" version="1"/>
  <node id="706" lat="27.088934953" lon="-109.715221100" version="1"/>
  <node id="707" lat="27.088948270" lon="-109.715301904" version="1"/>
  <node id="708" lat="27.088964487" lon="-109.715392808" version="1"/>
  <node id="709" lat="27.088978954" lon="-109.715473612" version="1"/>
  <node id="710" lat="27.088993474" lon="-109.715554416" version="1"/>
  <node id="711" lat="27.089009687" lon="-109.715645321" version="1"/>
  <node id="712" lat="27.089025008" lon="-109.715726125" version="1"/>
  <node id="713" lat="27.089040397" lon="-109.715806929" version="1"/>
  <node id="714" lat="27.089056088" lon="-109.715887924" version="1"/>
  <node id="715" lat="27.089073990" lon="-109.715978637" version="1"/>
  <node id="716" lat="27.089090940" lon="-109.716059441" version="1"/>
  <node id="717" lat="27.089107033" lon="-109.716140245" version="1"/>
  <node id="718" lat="27.089124531" lon="-109.716221049" version="1"/>
  <node id="719" lat="27.089141453" lon="-109.716301853" version="1"/>
  <node id="720" lat="27.089158029" lon="-109.716382657" version="1"/>
  <node id="721" lat="27.089174233" lon="-109.716463461" version="1"/>
  <node id="722" lat="27.089190986" lon="-109.716549148" version="1"/>
  <node id="723" lat="27.089197386" lon="-109.716645270" version="1"/>
  <node id="724" lat="27.089193661" lon="-109.716746275" version="1"/>
  <node id="725" lat="27.089192007" lon="-109.716847280" version="1"/>
  <node id="726" lat="27.089191910" lon="-109.716948285" version="1"/>
  <node id="727" lat="27.089188453" lon="-109.717039189" version="1"/>
  <node id="728" lat="27.089172999" lon="-109.717121584" version="1"/>
  <node id="729" lat="27.089101054" lon="-109.717109589" version="1"/>
  <node id="730" lat="27.089020115" lon="-109.717097474" version="1"/>
  <node id="731" lat="27.088939176" lon="-109.717086248" version="1"/>
  <node id="732" lat="27.088858237" lon="-109.717075875" version="1"/>
  <node id="733" lat="27.088777299" lon="-109.717066782" version="1"/>
  <node id="734" lat="27.088693544" lon="-109.717059390" version="1"/>
  <node id="735" lat="27.088606428" lon="-109.717052149" version="1"/>
  <node id="736" lat="27.088525489" lon="-109.717046401" version="1"/>
  <node id="737" lat="27.088435557" lon="-109.717042224" version="1"/>
  <node id="738" lat="27.088345625" lon="-109.717040375" version="1"/>
  <node id="739" lat="27.088255693" lon="-109.717040734" version="1"/>
  <node id="740" lat="27.088165761" lon="-109.717041646" version="1"/>
  <node id="741" lat="27.088075829" lon="-109.717042548" version="1"/>
  <node id="742" lat="27.087985897" lon="-109.717043547" version="1"/>
  <node id="743" lat="27.087895965" lon="-109.717046318" version="1"/>
  <node id="744" lat="27.087815026" lon="-109.717050828" version="1"/>
  <node id="745" lat="27.087725094" lon="-109.717058083" version="1"/>
  <node id="746" lat="27.087644155" lon="-109.717066646" version="1"/>
  <node id="747" lat="27.087563216" lon="-109.717075727" version="1"/>
  <node id="748" lat="27.087482277" lon="-109.717085835" version="1"/>
  <node id="749" lat="27.087401338" lon="-109.717097916" version="1"/>
  <node id="750" lat="27.087323094" lon="-109.717109893" version="1"/>
  <node id="751" lat="27.087248454" lon="-109.717122672" version="1"/>
  <node id="752" lat="27.087167515" lon="-109.717137227" version="1"/>
  <node id="753" lat="27.087095569" lon="-109.717151861" version="1"/>
  <node id="754" lat="27.087014631" lon="-109.717169565" version="1"/>
  <node id="755" lat="27.086942685" lon="-109.717185419" version="1"/>
  <node id="756" lat="27.086870739" lon="-109.717202521" version="1"/>
  <node id="757" lat="27.086797437" lon="-109.717220998" version="1"/>
  <node id="758" lat="27.086720974" lon="-109.717241199" version="1"/>
  <node id="759" lat="27.086647280" lon="-109.717261400" version="1"/>
  <node id="760" lat="27.086578503" lon="-109.717281601" version="1"/>
  <node id="761" lat="27.086510262" lon="-109.717301802" version="1"/>
  <node id="762" lat="27.086439066" lon="-109.717322882" version="1"/>
  <node id="763" lat="27.086367120" lon="-109.717344190" version="1"/>
  <node id="764" lat="27.086295174" lon="-109.717365695" version="1"/>
  <node id="765" lat="27.086223229" lon="-109.717388661" version="1"/>
  <node id="766" lat="27.086151283" lon="-109.717410701" version="1"/>
  <node id="767" lat="27.086079338" lon="-109.717432030" version="1"/>
  <node id="768" lat="27.086007562" lon="-109.717453310" version="1"/>
  <node id="769" lat="27.085939389" lon="-109.717473511" version="1"/>
  <node id="770" lat="27.085871224" lon="-109.717493711" version="1"/>
  <node id="771" lat="27.085797794" lon="-109.717513912" version="1"/>
  <node id="772" lat="27.085725234" lon="-109.717534113" version="1"/>
  <node id="773" lat="27.085656657" lon="-109.717521780" version="1"/>
  <node id="774" lat="27.085579617" lon="-109.717503812" version="1"/>
  <node id="775" lat="27.085503772" lon="-109.717487431" version="1"/>
  <node id="776" lat="27.085431827" lon="-109.717472201" version="1"/>
  <node id="777" lat="27.085350888" lon="-109.717455116" version="1"/>
  <node id="778" lat="27.085278942" lon="-109.717440019" version="1"/>
  <node id="779" lat="27.085198004" lon="-109.717423575" version="1"/>
  <node id="780" lat="27.085126058" lon="-109.717409930" version="1"/>
  <node id="781" lat="27.085045119" lon="-109.717393776" version="1"/>
  <node id="782" lat="27.084973173" lon="-109.717381133" version="1"/>
  <node id="783" lat="27.084892235" lon="-109.717367602" version="1"/>
  <node id="784" lat="27.084811296" lon="-109.717355843" version="1"/>
  <node id="785" lat="27.084730357" lon="-109.717344224" version="1"/>
  <node id="786" lat="27.084649418" lon="-109.717333574" version="1"/>
  <node id="787" lat="27.084568479" lon="-109.717324908" version="1"/>
  <node id="788" lat="27.084487541" lon="-109.717317383" version="1"/>
  <node id="789" lat="27.084406602" lon="-109.717310491" version="1"/>
  <node id="790" lat="27.084316670" lon="-109.717305093" version="1"/>
  <node id="791" lat="27.084231737" lon="-109.717301802" version="1"/>
  <node id="792" lat="27.084145799" lon="-109.717297095" version="1"/>
  <node id="793" lat="27.084055867" lon="-109.717294499" version="1"/>
  <node id="794" lat="27.083965935" lon="-109.717294256" version="1"/>
  <node id="795" lat="27.083876003" lon="-109.717295781" version="1"/>
  <node id="796" lat="27.083786071" lon="-109.717297495" version="1"/>
  <node id="797" lat="27.083696139" lon="-109.717301003" version="1"/>
  <node id="798" lat="27.083615200" lon="-109.717306177" version="1"/>
  <node id="799" lat="27.083534261" lon="-109.717313312" version="1"/>
  <node id="800" lat="27.083444329" lon="-109.717319864" version="1"/>
  <node id="801" lat="27.083363390" lon="-109.717327214" version="1"/>
  <node id="802" lat="27.083282451" lon="-109.717336545" version="1"/>
  <node id="803" lat="27.083201512" lon="-109.717347194" version="1"/>
  <node id="804" lat="27.083120574" lon="-109.717358326" version="1"/>
  <node id="805" lat="27.083039635" lon="-109.717371211" version="1"/>
  <node id="806" lat="27.082967689" lon="-109.717382755" version="1"/>
  <node id="807" lat="27.082886750" lon="-109.717396185" version="1"/>
  <node id="808" lat="27.082805811" lon="-109.717410881" version="1"/>
  <node id="809" lat="27.082733866" lon="-109.717424010" version="1"/>
  <node id="810" lat="27.082652927" lon="-109.717438797" version="1"/>
  <node id="811" lat="27.082573039" lon="-109.717453310" version="1"/>
  <node id="812" lat="27.082500043" lon="-109.717465762" version="1"/>
  <node id="813" lat="27.082419104" lon="-109.717474972" version="1"/>
  <node id="814" lat="27.082329172" lon="-109.717477595" version="1"/>
  <node id="815" lat="27.082239240" lon="-109.717479509" version="1"/>
  <node id="816" lat="27.082149308" lon="-109.717481436" version="1"/>
  <node id="817" lat="27.082059376" lon="-109.717483343" version="1"/>
  <node id="818" lat="27.081969444" lon="-109.717479437" version="1"/>
  <node id="819" lat="27.081879512" lon="-109.717477671" version="1"/>
  <node id="820" lat="27.081789622" lon="-109.717473511" version="1"/>
  <node id="821" lat="27.081708641" lon="-109.717469627" version="1"/>
  <node id="822" lat="27.081618709" lon="-109.717465786" version="1"/>
  <node id="823" lat="27.081537770" lon="-109.717460972" version="1"/>
  <node id="824" lat="27.081447838" lon="-109.717457908" version="1"/>
  <node id="825" lat="27.081360819" lon="-109.717453310" version="1"/>
  <node id="826" lat="27.081276967" lon="-109.717450710" version="1"/>
  <node id="827" lat="27.081187035" lon="-109.717447467" version="1"/>
  <node id="828" lat="27.081097103" lon="-109.717444365" version="1"/>
  <node id="829" lat="27.081007171" lon="-109.717443698" version="1"/>
  <node id="830" lat="27.080917465" lon="-109.717443209" version="1"/>
  <node id="831" lat="27.080836300" lon="-109.717440114" version="1"/>
  <node id="832" lat="27.080746368" lon="-109.717439053" version="1"/>
  <node id="833" lat="27.080656436" lon="-109.717440375" version="1"/>
  <node id="834" lat="27.080566504" lon="-109.717440398" version="1"/>
  <node id="835" lat="27.080476572" lon="-109.717437354" version="1"/>
  <node id="836" lat="27.080386640" lon="-109.717436839" version="1"/>
  <node id="837" lat="27.080296708" lon="-109.717433852" version="1"/>
  <node id="838" lat="27.080215769" lon="-109.717431380" version="1"/>
  <node id="839" lat="27.080125837" lon="-109.717427608" version="1"/>
  <node id="840" lat="27.080044898" lon="-109.717419168" version="1"/>
  <node id="841" lat="27.079972952" lon="-109.717402683" version="1"/>
  <node id="842" lat="27.079892014" lon="-109.717382738" version="1"/>
  <node id="843" lat="27.079820068" lon="-109.717364533" version="1"/>
  <node id="844" lat="27.079748122" lon="-109.717346339" version="1"/>
  <node id="845" lat="27.079676177" lon="-109.717328149" version="1"/>
  <node id="846" lat="27.079604231" lon="-109.717310824" version="1"/>
  <node id="847" lat="27.079523292" lon="-109.717292881" version="1"/>
  <node id="848" lat="27.079451347" lon="-109.717277185" version="1"/>
  <node id="849" lat="27.079371873" lon="-109.717261400" version="1"/>
  <node id="850" lat="27.079298462" lon="-109.717246943" version="1"/>
  <node id="851" lat="27.079217780" lon="-109.717231099" version="1"/>
  <node id="852" lat="27.079145578" lon="-109.717218186" version="1"/>
  <node id="853" lat="27.079064639" lon="-109.717205175" version="1"/>
  <node id="854" lat="27.078983700" lon="-109.717192405" version="1"/>
  <node id="855" lat="27.078902761" lon="-109.717181279" version="1"/>
  <node id="856" lat="27.078821822" lon="-109.717172121" version="1"/>
  <node id="857" lat="27.078740884" lon="-109.717163022" version="1"/>
  <node id="858" lat="27.078659945" lon="-109.717154463" version="1"/>
  <node id="859" lat="27.078579006" lon="-109.717147981" version="1"/>
  <node id="860" lat="27.078489074" lon="-109.717141576" version="1"/>
  <node id="861" lat="27.078408135" lon="-109.717136997" version="1"/>
  <node id="862" lat="27.078318203" lon="-109.717134351" version="1"/>
  <node id="863" lat="27.078228271" lon="-109.717131641" version="1"/>
  <node id="864" lat="27.078147332" lon="-109.717129749" version="1"/>
  <node id="865" lat="27.078057400" lon="-109.717130084" version="1"/>
  <node id="866" lat="27.077976461" lon="-109.717132519" version="1"/>
  <node id="867" lat="27.077886529" lon="-109.717135982" version="1"/>
  <node id="868" lat="27.077796597" lon="-109.717139522" version="1"/>
  <node id="869" lat="27.077715658" lon="-109.717142785" version="1"/>
  <node id="870" lat="27.077625726" lon="-109.717148142" version="1"/>
  <node id="871" lat="27.077544788" lon="-109.717155112" version="1"/>
  <node id="872" lat="27.077463849" lon="-109.717164126" version="1"/>
  <node id="873" lat="27.077382910" lon="-109.717171360" version="1"/>
  <node id="874" lat="27.077298044" lon="-109.717180596" version="1"/>
  <node id="875" lat="27.077221032" lon="-109.717190891" version="1"/>
  <node id="876" lat="27.077140093" lon="-109.717202419" version="1"/>
  <node id="877" lat="27.077059155" lon="-109.717214709" version="1"/>
  <node id="878" lat="27.076978216" lon="-109.717228001" version="1"/>
  <node id="879" lat="27.076903033" lon="-109.717241199" version="1"/>
  <node id="880" lat="27.076825331" lon="-109.717256501" version="1"/>
  <node id="881" lat="27.076749382" lon="-109.717271501" version="1"/>
  <node id="882" lat="27.076672447" lon="-109.717287398" version="1"/>
  <node id="883" lat="27.076600501" lon="-109.717303482" version="1"/>
  <node id="884" lat="27.076522376" lon="-109.717322003" version="1"/>
  <node id="885" lat="27.076447617" lon="-109.717341323" version="1"/>
  <node id="886" lat="27.076375671" lon="-109.717360166" version="1"/>
  <node id="887" lat="27.076303725" lon="-109.717379248" version="1"/>
  <node id="888" lat="27.076231780" lon="-109.717399925" version="1"/>
  <node id="889" lat="27.076159834" lon="-109.717420561" version="1"/>
  <node id="890" lat="27.076087889" lon="-109.717443006" version="1"/>
  <node id="891" lat="27.076018085" lon="-109.717463410" version="1"/>
  <node id="892" lat="27.075952610" lon="-109.717483611" version="1"/>
  <node id="893" lat="27.075881045" lon="-109.717506549" version="1"/>
  <node id="894" lat="27.075809099" lon="-109.717529694" version="1"/>
  <node id="895" lat="27.075737154" lon="-109.717552937" version="1"/>
  <node id="896" lat="27.075670208" lon="-109.717574515" version="1"/>
  <node id="897" lat="27.075601949" lon="-109.717594716" version="1"/>
  <node id="898" lat="27.075530310" lon="-109.717615798" version="1"/>
  <node id="899" lat="27.075458364" lon="-109.717635386" version="1"/>
  <node id="900" lat="27.075384169" lon="-109.717655319" version="1"/>
  <node id="901" lat="27.092681022" lon="-109.717655319" version="1"/>
  <node id="902" lat="27.093363832" lon="-109.695919053" version="1"/>
  <node id="903" lat="27.093278045" lon="-109.694989306" version="1"/>
  <node id="904" lat="27.093191738" lon="-109.694139615" version="1"/>
  <node id="905" lat="27.093104934" lon="-109.693367452" version="1"/>
  <node id="906" lat="27.093017654" lon="-109.692670289" version="1"/>
  <node id="907" lat="27.092929920" lon="-109.692045596" version="1"/>
  <node id="908" lat="27.092841754" lon="-109.691490844" version="1"/>
  <node id="909" lat="27.092753177" lon="-109.691003506" version="1"/>
  <node id="910" lat="27.092664210" lon="-109.690581052" version="1"/>
  <node id="911" lat="27.092574877" lon="-109.690220954" version="1"/>
  <node id="912" lat="27.092485197" lon="-109.689920684" version="1"/>
  <node id="913" lat="27.092395193" lon="-109.689677712" version="1"/>
  <node id="914" lat="27.092304887" lon="-109.689489509" version="1"/>
  <node id="915" lat="27.092214300" lon="-109.689353548" version="1"/>
  <node id="916" lat="27.092123454" lon="-109.689267299" version="1"/>
  <node id="917" lat="27.092032370" lon="-109.689228235" version="1"/>
  <node id="918" lat="27.091941070" lon="-109.689233825" version="1"/>
  <node id="919" lat="27.091849575" lon="-109.689281542" version="1"/>
  <node id="920" lat="27.091757908" lon="-109.689368857" version="1"/>
  <node id="921" lat="27.091666091" lon="-109.689493241" version="1"/>
  <node id="922" lat="27.091574143" lon="-109.689652166" version="1"/>
  <node id="923" lat="27.091482088" lon="-109.689843102" version="1"/>
  <node id="924" lat="27.091389947" lon="-109.690063522" version="1"/>
  <node id="925" lat="27.091297742" lon="-109.690310896" version="1"/>
  <node id="926" lat="27.091205494" lon="-109.690582697" version="1"/>
  <node id="927" lat="27.091113225" lon="-109.690876394" version="1"/>
  <node id="928" lat="27.091020956" lon="-109.691189460" version="1"/>
  <node id="929" lat="27.090928709" lon="-109.691519366" version="1"/>
  <node id="930" lat="27.090836507" lon="-109.691863583" version="1"/>
  <node id="931" lat="27.090744369" lon="-109.692219583" version="1"/>
  <node id="932" lat="27.090652319" lon="-109.692584837" version="1"/>
  <node id="933" lat="27.090560378" lon="-109.692956816" version="1"/>
  <node id="934" lat="27.090468567" lon="-109.693332991" version="1"/>
  <node id="935" lat="27.090376908" lon="-109.693710835" version="1"/>
  <node id="936" lat="27.090285423" lon="-109.694087818" version="1"/>
  <node id="937" lat="27.090194134" lon="-109.694461411" version="1"/>
  <node id="938" lat="27.090103061" lon="-109.694829087" version="1"/>
  <node id="939" lat="27.090012227" lon="-109.695188315" version="1"/>
  <node id="940" lat="27.089921653" lon="-109.695536569" version="1"/>
  <node id="941" lat="27.089831362" lon="-109.695871318" version="1"/>
  <node id="942" lat="27.089741374" lon="-109.696190035" version="1"/>
  <node id="943" lat="27.089651711" lon="-109.696490190" version="1"/>
  <node id="944" lat="27.089562395" lon="-109.696769255" version="1"/>
  <node id="945" lat="27.089473448" lon="-109.697024702" version="1"/>
  <node id="946" lat="27.089384891" lon="-109.697254001" version="1"/>
  <node id="947" lat="27.089296746" lon="-109.697454624" version="1"/>
  <node id="948" lat="27.089209034" lon="-109.697624043" version="1"/>
  <node id="949" lat="27.089121777" lon="-109.697759728" version="1"/>
  <node id="950" lat="27.089034998" lon="-109.697859151" version="1"/>
  <node id="951" lat="27.088948716" lon="-109.697919784" version="1"/>
  <node id="952" lat="27.088862955" lon="-109.697939097" version="1"/>
  <node id="953" lat="27.088777711" lon="-109.697915538" version="1"/>
  <node id="954" lat="27.088692893" lon="-109.697850913" version="1"/>
  <node id="955" lat="27.088608395" lon="-109.697747750" version="1"/>
  <node id="956" lat="27.088524106" lon="-109.697608577" version="1"/>
  <node id="957" lat="27.088439921" lon="-109.697435924" version="1"/>
  <node id="958" lat="27.088355729" lon="-109.697232320" version="1"/>
  <node id="959" lat="27.088271423" lon="-109.697000292" version="1"/>
  <node id="960" lat="27.088186894" lon="-109.696742370" version="1"/>
  <node id="961" lat="27.088102035" lon="-109.696461082" version="1"/>
  <node id="962" lat="27.088016737" lon="-109.696158956" version="1"/>
  <node id="963" lat="27.087930892" lon="-109.695838523" version="1"/>
  <node id="964" lat="27.087844391" lon="-109.695502309" version="1"/>
  <node id="965" lat="27.087757127" lon="-109.695152845" version="1"/>
  <node id="966" lat="27.087668991" lon="-109.694792657" version="1"/>
  <node id="967" lat="27.087579875" lon="-109.694424276" version="1"/>
  <node id="968" lat="27.087489670" lon="-109.694050230" version="1"/>
  <node id="969" lat="27.087398269" lon="-109.693673048" version="1"/>
  <node id="970" lat="27.087305562" lon="-109.693295257" version="1"/>
  <node id="971" lat="27.087211443" lon="-109.692919387" version="1"/>
  <node id="972" lat="27.087115802" lon="-109.692547967" version="1"/>
  <node id="973" lat="27.087018532" lon="-109.692183525" version="1"/>
  <node id="974" lat="27.086919524" lon="-109.691828590" version="1"/>
  <node id="975" lat="27.086818670" lon="-109.691485690" version="1"/>
  <node id="976" lat="27.086715861" lon="-109.691157354" version="1"/>
  <node id="977" lat="27.086610990" lon="-109.690846111" version="1"/>
  <node id="978" lat="27.086503949" lon="-109.690554489" version="1"/>
  <node id="979" lat="27.086394628" lon="-109.690285018" version="1"/>
  <node id="980" lat="27.086282919" lon="-109.690040225" version="1"/>
  <node id="981" lat="27.086168716" lon="-109.689822640" version="1"/>
  <node id="982" lat="27.086051908" lon="-109.689634791" version="1"/>
  <node id="983" lat="27.085932389" lon="-109.689479207" version="1"/>
  <node id="984" lat="27.085810049" lon="-109.689358416" version="1"/>
  <node id="985" lat="27.085684780" lon="-109.689274947" version="1"/>
  <node id="986" lat="27.085556475" lon="-109.689231329" version="1"/>
  <node id="987" lat="27.085425025" lon="-109.689230090" version="1"/>
  <node id="988" lat="27.085290322" lon="-109.689273759" version="1"/>
  <node id="989" lat="27.085152257" lon="-109.689364865" version="1"/>
  <node id="990" lat="27.085010723" lon="-109.689505937" version="1"/>
  <node id="991" lat="27.084865610" lon="-109.689699502" version="1"/>
  <node id="992" lat="27.084716811" lon="-109.689948091" version="1"/>
  <node id="993" lat="27.084564218" lon="-109.690254230" version="1"/>
  <node id="994" lat="27.084407722" lon="-109.690620450" version="1"/>
  <node id="995" lat="27.084247216" lon="-109.691049278" version="1"/>
  <node id="996" lat="27.084082590" lon="-109.691543244" version="1"/>
  <node id="997" lat="27.083913736" lon="-109.692104876" version="1"/>
  <node id="998" lat="27.083740547" lon="-109.692736702" version="1"/>
  <node id="999" lat="27.083562914" lon="-109.693441252" version="1"/>
  <node id="1000" lat="27.083380729" lon="-109.694221054" version="1"/>
  <node id="1001" lat="27.083193883" lon="-109.695078636" version="1"/>
  <node id="1002" lat="27.083021648" lon="-109.695919053" version="1"/>
  <node id="1003" lat="27.098328080" lon="-109.721929657" version="1"/>
  <node id="1004" lat="27.097472761" lon="-109.721858402" version="1"/>
  <node id="1005" lat="27.096617241" lon="-109.721805722" version="1"/>
  <node id="1006" lat="27.095761547" lon="-109.721769700" version="1"/>
  <node id="1007" lat="27.094905707" lon="-109.721748420" version="1"/>
  <node id="1008" lat="27.094049747" lon="-109.721739964" version="1"/>
  <node id="1009" lat="27.093193696" lon="-109.721742414" version="1"/>
  <node id="1010" lat="27.092337581" lon="-109.721753855" version="1"/>
  <node id="1011" lat="27.091481428" lon="-109.721772367" version="1"/>
  <node id="1012" lat="27.090625265" lon="-109.721796035" version="1"/>
  <node id="1013" lat="27.089769120" lon="-109.721822942" version="1"/>
  <node id="1014" lat="27.088913018" lon="-109.721851171" version="1"/>
  <node id="1015" lat="27.088056958" lon="-109.721878868" version="1"/>
  <node id="1016" lat="27.087200913" lon="-109.721904236" version="1"/>
  <node id="1017" lat="27.086344851" lon="-109.721925482" version="1"/>
  <node id="1018" lat="27.085488743" lon="-109.721940813" version="1"/>
  <node id="1019" lat="27.084632559" lon="-109.721948441" version="1"/>
  <node id="1020" lat="27.083776297" lon="-109.721947407" version="1"/>
  <node id="1021" lat="27.082920010" lon="-109.721938399" version="1"/>
  <node id="1022" lat="27.082063757" lon="-109.721922303" version="1"/>
  <node id="1023" lat="27.081207598" lon="-109.721900005" version="1"/>
  <node id="1024" lat="27.080351591" lon="-109.721872389" version="1"/>
  <node id="1025" lat="27.079495755" lon="-109.721841542" version="1"/>
  <node id="1026" lat="27.078639930" lon="-109.721814521" version="1"/>
  <node id="1027" lat="27.077783913" lon="-109.721799669" version="1"/>
  <node id="1028" lat="27.076927501" lon="-109.721805330" version="1"/>
  <node id="1029" lat="27.076070490" lon="-109.721839849" version="1"/>
  <node id="1030" lat="27.075212756" lon="-109.721909311" version="1"/>
  <node id="1031" lat="27.074354909" lon="-109.721999267" version="1"/>
  <node id="1032" lat="27.073497948" lon="-109.722084320" version="1"/>
  <node id="1033" lat="27.072642875" lon="-109.722138968" version="1"/>
  <node id="1034" lat="27.071790692" lon="-109.722137710" version="1"/>
  <node id="1035" lat="27.070942315" lon="-109.722056578" version="1"/>
  <node id="1036" lat="27.070096410" lon="-109.721910560" version="1"/>
  <node id="1037" lat="27.069249272" lon="-109.721755753" version="1"/>
  <node id="1038" lat="27.068397133" lon="-109.721649915" version="1"/>
  <node id="1039" lat="27.067540070" lon="-109.721626278" version="1"/>
  <node id="1040" lat="27.066684736" lon="-109.721676242" version="1"/>
  <node id="1041" lat="27.065836230" lon="-109.721814357" version="1"/>
  <node id="1042" lat="27.064992884" lon="-109.721795694" version="1"/>
  <node id="1043" lat="27.064207366" lon="-109.721299799" version="1"/>
  <node id="1044" lat="27.063583764" lon="-109.720492275" version="1"/>
  <node id="1045" lat="27.063227435" lon="-109.719553953" version="1"/>
  <node id="1046" lat="27.063199437" lon="-109.718621713" version="1"/>
  <node id="1047" lat="27.063439600" lon="-109.717712162" version="1"/>
  <node id="1048" lat="27.063867209" lon="-109.716821519" version="1"/>
  <node id="1049" lat="27.064401549" lon="-109.715946008" version="1"/>
  <node id="1050" lat="27.064961904" lon="-109.715081847" version="1"/>
  <node id="1051" lat="27.065467559" lon="-109.714225260" version="1"/>
  <node id="1052" lat="27.065837798" lon="-109.713372466" version="1"/>
  <node id="1053" lat="27.065988521" lon="-109.712605072" version="1"/>
  <node id="1054" lat="27.065988521" lon="-109.711287947" version="1"/>
  <node id="1055" lat="27.065988521" lon="-109.709970822" version="1"/>
  <node id="1056" lat="27.065988521" lon="-109.708653697" version="1"/>
  <node id="1057" lat="27.065988521" lon="-109.707336572" version="1"/>
  <node id="1058" lat="27.065988521" lon="-109.706019447" version="1"/>
  <node id="1059" lat="27.065988521" lon="-109.704702322" version="1"/>
  <node id="1060" lat="27.065988521" lon="-109.703385197" version="1"/>
  <node id="1061" lat="27.065988521" lon="-109.702068072" version="1"/>
  <node id="1062" lat="27.065988521" lon="-109.700750947" version="1"/>
  <node id="1063" lat="27.065988521" lon="-109.699433822" version="1"/>
  <node id="1064" lat="27.065988521" lon="-109.698116697" version="1"/>
  <node id="1065" lat="27.065988521" lon="-109.696799572" version="1"/>
  <node id="1066" lat="27.065988521" lon="-109.695482447" version="1"/>
  <node id="1067" lat="27.065988521" lon="-109.694165323" version="1"/>
  <node id="1068" lat="27.065988521" lon="-109.692848198" version="1"/>
  <node id="1069" lat="27.065988521" lon="-109.691531073" version="1"/>
  <node id="1070" lat="27.065988521" lon="-109.690213948" version="1"/>
  <node id="1071" lat="27.065988521" lon="-109.688896823" version="1"/>
  <node id="1072" lat="27.065988521" lon="-109.687579698" version="1"/>
  <node id="1073" lat="27.065988521" lon="-109.686394285" version="1"/>
  <way id="1" version="1">
    <nd ref="1"/>
    <nd ref="2"/>
    <nd ref="3"/>
    <nd ref="4"/>
    <nd ref="5"/>
    <nd ref="6"/>
    <nd ref="7"/>
    <nd ref="8"/>
    <nd ref="9"/>
    <nd ref="10"/>
    <nd ref="11"/>
    <nd ref="12"/>
    <nd ref="13"/>
    <nd ref="14"/>
    <nd ref="15"/>
    <nd ref="16"/>
    <nd ref="17"/>
    <nd ref="18"/>
    <nd ref="19"/>
    <nd ref="20"/>
    <nd ref="21"/>
    <nd ref="22"/>
    <nd ref="23"/>
    <nd ref="24"/>
    <nd ref="25"/>
    <nd ref="26"/>
    <nd ref="27"/>
    <nd ref="28"/>
    <nd ref="29"/>
    <nd ref="30"/>
    <nd ref="31"/>
    <nd ref="32"/>
    <nd ref="33"/>
    <nd ref="34"/>
    <nd ref="35"/>
    <nd ref="36"/>
    <nd ref="37"/>
    <nd ref="38"/>
    <nd ref="39"/>
    <nd ref="40"/>
    <nd ref="41"/>
    <nd ref="42"/>
    <nd ref="43"/>
    <nd ref="44"/>
    <nd ref="45"/>
    <nd ref="46"/>
    <nd ref="47"/>
    <nd ref="48"/>
    <nd ref="49"/>
    <nd ref="50"/>
    <nd ref="51"/>
    <nd ref="52"/>
    <nd ref="53"/>
    <nd ref="54"/>
    <nd ref="55"/>
    <nd ref="56"/>
    <nd ref="57"/>
    <nd ref="58"/>
    <nd ref="59"/>
    <nd ref="60"/>
    <nd ref="61"/>
    <nd ref="62"/>
    <nd ref="63"/>
    <nd ref="64"/>
    <nd ref="65"/>
    <nd ref="66"/>
    <nd ref="67"/>
    <nd ref="68"/>
    <nd ref="69"/>
    <nd ref="70"/>
    <nd ref="71"/>
    <nd ref="72"/>
    <nd ref="73"/>
    <nd ref="74"/>
    <nd ref="75"/>
    <nd ref="76"/>
    <nd ref="77"/>
    <nd ref="78"/>
    <nd ref="79"/>
    <nd ref="80"/>
    <nd ref="81"/>
    <nd ref="82"/>
    <nd ref="83"/>
    <nd ref="84"/>
    <nd ref="85"/>
    <nd ref="86"/>
    <nd ref="87"/>
    <nd ref="88"/>
    <nd ref="89"/>
    <nd ref="90"/>
    <nd ref="91"/>
    <nd ref="92"/>
    <nd ref="93"/>
    <nd ref="94"/>
    <nd ref="95"/>
    <nd ref="96"/>
    <nd ref="97"/>
    <nd ref="98"/>
    <nd ref="99"/>
    <nd ref="100"/>
    <nd ref="101"/>
    <nd ref="102"/>
    <nd ref="103"/>
    <nd ref="104"/>
    <nd ref="105"/>
    <nd ref="106"/>
    <nd ref="107"/>
    <nd ref="108"/>
    <nd ref="109"/>
    <nd ref="110"/>
    <nd ref="111"/>
    <nd ref="112"/>
    <nd ref="113"/>
    <nd ref="114"/>
    <nd ref="115"/>
    <nd ref="116"/>
    <nd ref="117"/>
    <nd ref="118"/>
    <nd ref="119"/>
    <nd ref="120"/>
    <nd ref="121"/>
    <nd ref="122"/>
    <nd ref="123"/>
    <nd ref="124"/>
    <nd ref="125"/>
    <nd ref="126"/>
    <nd ref="127"/>
    <nd ref="128"/>
    <nd ref="129"/>
    <nd ref="130"/>
    <nd ref="131"/>
    <nd ref="132"/>
    <nd ref="133"/>
    <nd ref="134"/>
    <nd ref="135"/>
    <nd ref="136"/>
    <nd ref="137"/>
    <nd ref="138"/>
    <nd ref="139"/>
    <nd ref="140"/>
    <nd ref="141"/>
    <nd ref="142"/>
    <nd ref="143"/>
    <nd ref="144"/>
    <nd ref="145"/>
    <nd ref="146"/>
    <nd ref="147"/>
    <nd ref="148"/>
    <nd ref="149"/>
    <nd ref="150"/>
    <nd ref="151"/>
    <nd ref="152"/>
    <nd ref="153"/>
    <nd ref="154"/>
    <nd ref="155"/>
    <nd ref="156"/>
    <nd ref="157"/>
    <nd ref="158"/>
    <nd ref="159"/>
    <nd ref="160"/>
    <nd ref="161"/>
    <nd ref="162"/>
    <nd ref="163"/>
    <nd ref="164"/>
    <nd ref="165"/>
    <nd ref="166"/>
    <nd ref="167"/>
    <nd ref="168"/>
    <nd ref="169"/>
    <nd ref="170"/>
    <nd ref="171"/>
    <nd ref="172"/>
    <nd ref="173"/>
    <nd ref="174"/>
    <nd ref="175"/>
    <nd ref="176"/>
    <nd ref="177"/>
    <nd ref="178"/>
    <nd ref="179"/>
    <nd ref="180"/>
    <nd ref="181"/>
    <nd ref="182"/>
    <nd ref="183"/>
    <nd ref="184"/>
    <nd ref="185"/>
    <nd ref="186"/>
    <nd ref="187"/>
    <nd ref="188"/>
    <nd ref="189"/>
    <nd ref="190"/>
    <nd ref="191"/>
    <nd ref="192"/>
    <nd ref="193"/>
    <nd ref="194"/>
    <nd ref="195"/>
    <nd ref="196"/>
    <nd ref="197"/>
    <nd ref="198"/>
    <nd ref="199"/>
    <nd ref="200"/>
    <nd ref="201"/>
    <nd ref="202"/>
    <nd ref="203"/>
    <nd ref="204"/>
    <nd ref="205"/>
    <nd ref="206"/>
    <nd ref="207"/>
    <nd ref="208"/>
    <nd ref="209"/>
    <nd ref="210"/>
    <nd ref="211"/>
    <nd ref="212"/>
    <nd ref="213"/>
    <nd ref="214"/>
    <nd ref="215"/>
    <nd ref="216"/>
    <nd ref="217"/>
    <nd ref="218"/>
    <nd ref="219"/>
    <nd ref="220"/>
    <nd ref="221"/>
    <nd ref="222"/>
    <nd ref="223"/>
    <nd ref="224"/>
    <nd ref="225"/>
    <nd ref="226"/>
    <nd ref="227"/>
    <nd ref="228"/>
    <nd ref="229"/>
    <nd ref="230"/>
    <nd ref="231"/>
    <nd ref="232"/>
    <nd ref="233"/>
    <nd ref="234"/>
    <nd ref="235"/>
    <nd ref="236"/>
    <nd ref="237"/>
    <nd ref="238"/>
    <nd ref="239"/>
    <nd ref="240"/>
    <nd ref="241"/>
    <nd ref="242"/>
    <nd ref="243"/>
    <nd ref="244"/>
    <nd ref="245"/>
    <nd ref="246"/>
    <nd ref="247"/>
    <nd ref="248"/>
    <nd ref="249"/>
    <nd ref="250"/>
    <nd ref="251"/>
    <nd ref="252"/>
    <nd ref="253"/>
    <nd ref="254"/>
    <nd ref="255"/>
    <nd ref="256"/>
    <nd ref="257"/>
    <nd ref="258"/>
    <nd ref="259"/>
    <nd ref="260"/>
    <nd ref="261"/>
    <nd ref="262"/>
    <nd ref="263"/>
    <nd ref="264"/>
    <nd ref="265"/>
    <nd ref="266"/>
    <nd ref="267"/>
    <nd ref="268"/>
    <nd ref="269"/>
    <nd ref="270"/>
    <nd ref="271"/>
    <nd ref="272"/>
    <nd ref="273"/>
    <nd ref="274"/>
    <nd ref="275"/>
    <nd ref="276"/>
    <nd ref="277"/>
    <nd ref="278"/>
    <nd ref="279"/>
    <nd ref="280"/>
    <nd ref="281"/>
    <nd ref="282"/>
    <nd ref="283"/>
    <nd ref="284"/>
    <nd ref="285"/>
    <nd ref="286"/>
    <nd ref="287"/>
    <nd ref="288"/>
    <nd ref="289"/>
    <nd ref="290"/>
    <nd ref="291"/>
    <nd ref="292"/>
    <nd ref="293"/>
    <nd ref="294"/>
    <nd ref="295"/>
    <nd ref="296"/>
    <nd ref="297"/>
    <nd ref="298"/>
    <nd ref="299"/>
    <nd ref="300"/>
    <nd ref="301"/>
    <nd ref="302"/>
    <nd ref="303"/>
    <nd ref="304"/>
    <nd ref="305"/>
    <nd ref="306"/>
    <nd ref="307"/>
    <nd ref="308"/>
    <nd ref="309"/>
    <nd ref="310"/>
    <nd ref="311"/>
    <nd ref="312"/>
    <nd ref="313"/>
    <nd ref="314"/>
    <nd ref="315"/>
    <nd ref="316"/>
    <nd ref="317"/>
    <nd ref="318"/>
    <nd ref="319"/>
    <nd ref="320"/>
    <nd ref="321"/>
    <nd ref="322"/>
    <nd ref="323"/>
    <nd ref="324"/>
    <nd ref="325"/>
    <nd ref="326"/>
    <nd ref="327"/>
    <nd ref="328"/>
    <nd ref="329"/>
    <nd ref="330"/>
    <nd ref="331"/>
    <nd ref="332"/>
    <nd ref="333"/>
    <nd ref="334"/>
    <nd ref="335"/>
    <nd ref="336"/>
    <nd ref="337"/>
    <nd ref="338"/>
    <nd ref="339"/>
    <nd ref="340"/>
    <nd ref="341"/>
    <nd ref="342"/>
    <nd ref="343"/>
    <nd ref="344"/>
    <nd ref="345"/>
    <nd ref="346"/>
    <nd ref="347"/>
    <nd ref="348"/>
    <nd ref="349"/>
    <nd ref="350"/>
    <nd ref="351"/>
    <nd ref="352"/>
    <nd ref="353"/>
    <nd ref="354"/>
    <nd ref="355"/>
    <nd ref="356"/>
    <nd ref="357"/>
    <nd ref="358"/>
    <nd ref="359"/>
    <nd ref="360"/>
    <nd ref="361"/>
    <nd ref="362"/>
    <nd ref="363"/>
    <nd ref="364"/>
    <nd ref="365"/>
    <nd ref="366"/>
    <nd ref="367"/>
    <nd ref="368"/>
    <nd ref="369"/>
    <nd ref="370"/>
    <nd ref="371"/>
    <nd ref="372"/>
    <nd ref="373"/>
    <nd ref="374"/>
    <nd ref="375"/>
    <nd ref="376"/>
    <nd ref="377"/>
    <nd ref="378"/>
    <nd ref="379"/>
    <nd ref="380"/>
    <nd ref="381"/>
    <nd ref="382"/>
    <nd ref="383"/>
    <nd ref="384"/>
    <nd ref="385"/>
    <nd ref="386"/>
    <nd ref="387"/>
    <nd ref="388"/>
    <nd ref="389"/>
    <nd ref="390"/>
    <nd ref="391"/>
    <nd ref="392"/>
    <nd ref="393"/>
    <nd ref="394"/>
    <nd ref="395"/>
    <nd ref="396"/>
    <nd ref="397"/>
    <nd ref="398"/>
    <nd ref="399"/>
    <nd ref="400"/>
    <nd ref="401"/>
    <nd ref="402"/>
    <nd ref="403"/>
    <nd ref="404"/>
    <nd ref="405"/>
    <nd ref="406"/>
    <nd ref="407"/>
    <nd ref="408"/>
    <nd ref="409"/>
    <nd ref="410"/>
    <nd ref="411"/>
    <nd ref="412"/>
    <nd ref="413"/>
    <nd ref="414"/>
    <nd ref="415"/>
    <nd ref="416"/>
    <nd ref="417"/>
    <nd ref="418"/>
    <nd ref="419"/>
    <nd ref="420"/>
    <nd ref="421"/>
    <nd ref="422"/>
    <nd ref="423"/>
    <nd ref="424"/>
    <nd ref="425"/>
    <nd ref="426"/>
    <nd ref="427"/>
    <nd ref="428"/>
    <nd ref="429"/>
    <nd ref="430"/>
    <nd ref="431"/>
    <nd ref="432"/>
    <nd ref="433"/>
    <nd ref="434"/>
    <nd ref="435"/>
    <nd ref="436"/>
    <nd ref="437"/>
    <nd ref="438"/>
    <nd ref="439"/>
    <nd ref="440"/>
    <nd ref="441"/>
    <nd ref="442"/>
    <nd ref="443"/>
    <nd ref="444"/>
    <nd ref="445"/>
    <nd ref="446"/>
    <nd ref="447"/>
    <nd ref="448"/>
    <nd ref="449"/>
    <nd ref="450"/>
    <nd ref="451"/>
    <nd ref="452"/>
    <nd ref="453"/>
    <nd ref="454"/>
    <nd ref="455"/>
    <nd ref="456"/>
    <nd ref="457"/>
    <nd ref="458"/>
    <nd ref="459"/>
    <nd ref="460"/>
    <nd ref="461"/>
    <nd ref="462"/>
    <nd ref="463"/>
    <nd ref="464"/>
    <nd ref="465"/>
    <nd ref="466"/>
    <nd ref="467"/>
    <nd ref="468"/>
    <nd ref="469"/>
    <nd ref="470"/>
    <nd ref="471"/>
    <nd ref="472"/>
    <nd ref="473"/>
    <nd ref="474"/>
    <nd ref="475"/>
    <nd ref="476"/>
    <nd ref="477"/>
    <nd ref="478"/>
    <nd ref="479"/>
    <nd ref="480"/>
    <nd ref="481"/>
    <nd ref="482"/>
    <nd ref="483"/>
    <nd ref="484"/>
    <nd ref="485"/>
    <nd ref="486"/>
    <nd ref="487"/>
    <nd ref="488"/>
    <nd ref="489"/>
    <nd ref="490"/>
    <nd ref="491"/>
    <nd ref="492"/>
    <nd ref="493"/>
    <nd ref="494"/>
    <nd ref="495"/>
    <nd ref="496"/>
    <nd ref="497"/>
    <nd ref="498"/>
    <nd ref="499"/>
    <nd ref="500"/>
    <nd ref="501"/>
    <nd ref="502"/>
    <nd ref="503"/>
    <nd ref="504"/>
    <nd ref="505"/>
    <nd ref="506"/>
    <nd ref="507"/>
    <nd ref="508"/>
    <nd ref="509"/>
    <nd ref="510"/>
    <nd ref="511"/>
    <nd ref="512"/>
    <nd ref="513"/>
    <nd ref="514"/>
    <nd ref="515"/>
    <nd ref="516"/>
    <nd ref="517"/>
    <nd ref="518"/>
    <nd ref="519"/>
    <nd ref="520"/>
    <nd ref="521"/>
    <nd ref="522"/>
    <nd ref="523"/>
    <nd ref="524"/>
    <nd ref="525"/>
    <nd ref="526"/>
    <nd ref="527"/>
    <nd ref="528"/>
    <nd ref="529"/>
    <nd ref="530"/>
    <nd ref="531"/>
    <nd ref="532"/>
    <nd ref="533"/>
    <nd ref="534"/>
    <nd ref="535"/>
    <nd ref="536"/>
    <nd ref="537"/>
    <nd ref="538"/>
    <nd ref="539"/>
    <nd ref="540"/>
    <nd ref="541"/>
    <nd ref="542"/>
    <nd ref="543"/>
    <nd ref="544"/>
    <nd ref="545"/>
    <nd ref="546"/>
    <nd ref="547"/>
    <nd ref="548"/>
    <nd ref="549"/>
    <nd ref="550"/>
    <nd ref="551"/>
    <nd ref="552"/>
    <nd ref="553"/>
    <nd ref="554"/>
    <nd ref="555"/>
    <nd ref="556"/>
    <nd ref="557"/>
    <nd ref="558"/>
    <nd ref="559"/>
    <nd ref="560"/>
    <nd ref="561"/>
    <nd ref="562"/>
    <nd ref="563"/>
    <nd ref="564"/>
    <nd ref="565"/>
    <nd ref="566"/>
    <nd ref="567"/>
    <nd ref="568"/>
    <nd ref="569"/>
    <nd ref="570"/>
    <nd ref="571"/>
    <nd ref="572"/>
    <nd ref="573"/>
    <nd ref="574"/>
    <nd ref="575"/>
    <nd ref="576"/>
    <nd ref="577"/>
    <nd ref="578"/>
    <nd ref="579"/>
    <nd ref="580"/>
    <nd ref="581"/>
    <nd ref="582"/>
    <nd ref="583"/>
    <nd ref="584"/>
    <nd ref="585"/>
    <nd ref="586"/>
    <nd ref="587"/>
    <nd ref="588"/>
    <nd ref="589"/>
    <nd ref="590"/>
    <nd ref="591"/>
    <nd ref="592"/>
    <nd ref="593"/>
    <nd ref="594"/>
    <nd ref="595"/>
    <nd ref="596"/>
    <nd ref="597"/>
    <nd ref="598"/>
    <nd ref="599"/>
    <nd ref="600"/>
    <nd ref="601"/>
    <nd ref="602"/>
    <nd ref="603"/>
    <nd ref="604"/>
    <nd ref="605"/>
    <nd ref="606"/>
    <nd ref="607"/>
    <nd ref="608"/>
    <nd ref="609"/>
    <nd ref="610"/>
    <nd ref="611"/>
    <nd ref="612"/>
    <nd ref="613"/>
    <nd ref="614"/>
    <nd ref="615"/>
    <nd ref="616"/>
    <nd ref="617"/>
    <nd ref="618"/>
    <nd ref="619"/>
    <nd ref="620"/>
    <nd ref="621"/>
    <nd ref="622"/>
    <nd ref="623"/>
    <nd ref="624"/>
    <nd ref="625"/>
    <nd ref="626"/>
    <nd ref="627"/>
    <nd ref="628"/>
    <nd ref="629"/>
    <nd ref="630"/>
    <nd ref="631"/>
    <nd ref="632"/>
    <nd ref="633"/>
    <nd ref="634"/>
    <nd ref="635"/>
    <nd ref="636"/>
    <nd ref="637"/>
    <nd ref="638"/>
    <nd ref="639"/>
    <nd ref="640"/>
    <nd ref="641"/>
    <nd ref="642"/>
    <nd ref="643"/>
    <nd ref="644"/>
    <nd ref="645"/>
    <nd ref="646"/>
    <nd ref="647"/>
    <nd ref="648"/>
    <nd ref="649"/>
    <nd ref="650"/>
    <nd ref="651"/>
    <nd ref="652"/>
    <nd ref="653"/>
    <nd ref="654"/>
    <nd ref="655"/>
    <nd ref="656"/>
    <nd ref="657"/>
    <nd ref="658"/>
    <nd ref="659"/>
    <nd ref="660"/>
    <nd ref="661"/>
    <nd ref="662"/>
    <nd ref="663"/>
    <nd ref="664"/>
    <nd ref="665"/>
    <nd ref="666"/>
    <nd ref="667"/>
    <nd ref="668"/>
    <nd ref="669"/>
    <nd ref="670"/>
    <nd ref="671"/>
    <nd ref="672"/>
    <nd ref="673"/>
    <nd ref="674"/>
    <nd ref="675"/>
    <nd ref="676"/>
    <nd ref="677"/>
    <nd ref="678"/>
    <nd ref="679"/>
    <nd ref="680"/>
    <nd ref="681"/>
    <nd ref="682"/>
    <nd ref="683"/>
    <nd ref="684"/>
    <nd ref="685"/>
    <nd ref="686"/>
    <nd ref="687"/>
    <nd ref="688"/>
    <nd ref="689"/>
    <nd ref="690"/>
    <nd ref="691"/>
    <nd ref="692"/>
    <nd ref="693"/>
    <nd ref="694"/>
    <nd ref="695"/>
    <nd ref="696"/>
    <nd ref="697"/>
    <nd ref="698"/>
    <nd ref="699"/>
    <nd ref="700"/>
    <nd ref="701"/>
    <nd ref="702"/>
    <nd ref="703"/>
    <nd ref="704"/>
    <nd ref="705"/>
    <nd ref="706"/>
    <nd ref="707"/>
    <nd ref="708"/>
    <nd ref="709"/>
    <nd ref="710"/>
    <nd ref="711"/>
    <nd ref="712"/>
    <nd ref="713"/>
    <nd ref="714"/>
    <nd ref="715"/>
    <nd ref="716"/>
    <nd ref="717"/>
    <nd ref="718"/>
    <nd ref="719"/>
    <nd ref="720"/>
    <nd ref="721"/>
    <nd ref="722"/>
    <nd ref="723"/>
    <nd ref="724"/>
    <nd ref="725"/>
    <nd ref="726"/>
    <nd ref="727"/>
    <nd ref="728"/>
    <nd ref="729"/>
    <nd ref="730"/>
    <nd ref="731"/>
    <nd ref="732"/>
    <nd ref="733"/>
    <nd ref="734"/>
    <nd ref="735"/>
    <nd ref="736"/>
    <nd ref="737"/>
    <nd ref="738"/>
    <nd ref="739"/>
    <nd ref="740"/>
    <nd ref="741"/>
    <nd ref="742"/>
    <nd ref="743"/>
    <nd ref="744"/>
    <nd ref="745"/>
    <nd ref="746"/>
    <nd ref="747"/>
    <nd ref="748"/>
    <nd ref="749"/>
    <nd ref="750"/>
    <nd ref="751"/>
    <nd ref="752"/>
    <nd ref="753"/>
    <nd ref="754"/>
    <nd ref="755"/>
    <nd ref="756"/>
    <nd ref="757"/>
    <nd ref="758"/>
    <nd ref="759"/>
    <nd ref="760"/>
    <nd ref="761"/>
    <nd ref="762"/>
    <nd ref="763"/>
    <nd ref="764"/>
    <nd ref="765"/>
    <nd ref="766"/>
    <nd ref="767"/>
    <nd ref="768"/>
    <nd ref="769"/>
    <nd ref="770"/>
    <nd ref="771"/>
    <nd ref="772"/>
    <nd ref="773"/>
    <nd ref="774"/>
    <nd ref="775"/>
    <nd ref="776"/>
    <nd ref="777"/>
    <nd ref="778"/>
    <nd ref="779"/>
    <nd ref="780"/>
    <nd ref="781"/>
    <nd ref="782"/>
    <nd ref="783"/>
    <nd ref="784"/>
    <nd ref="785"/>
    <nd ref="786"/>
    <nd ref="787"/>
    <nd ref="788"/>
    <nd ref="789"/>
    <nd ref="790"/>
    <nd ref="791"/>
    <nd ref="792"/>
    <nd ref="793"/>
    <nd ref="794"/>
    <nd ref="795"/>
    <nd ref="796"/>
    <nd ref="797"/>
    <nd ref="798"/>
    <nd ref="799"/>
    <nd ref="800"/>
    <nd ref="801"/>
    <nd ref="802"/>
    <nd ref="803"/>
    <nd ref="804"/>
    <nd ref="805"/>
    <nd ref="806"/>
    <nd ref="807"/>
    <nd ref="808"/>
    <nd ref="809"/>
    <nd ref="810"/>
    <nd ref="811"/>
    <nd ref="812"/>
    <nd ref="813"/>
    <nd ref="814"/>
    <nd ref="815"/>
    <nd ref="816"/>
    <nd ref="817"/>
    <nd ref="818"/>
    <nd ref="819"/>
    <nd ref="820"/>
    <nd ref="821"/>
    <nd ref="822"/>
    <nd ref="823"/>
    <nd ref="824"/>
    <nd ref="825"/>
    <nd ref="826"/>
    <nd ref="827"/>
    <nd ref="828"/>
    <nd ref="829"/>
    <nd ref="830"/>
    <nd ref="831"/>
    <nd ref="832"/>
    <nd ref="833"/>
    <nd ref="834"/>
    <nd ref="835"/>
    <nd ref="836"/>
    <nd ref="837"/>
    <nd ref="838"/>
    <nd ref="839"/>
    <nd ref="840"/>
    <nd ref="841"/>
    <nd ref="842"/>
    <nd ref="843"/>
    <nd ref="844"/>
    <nd ref="845"/>
    <nd ref="846"/>
    <nd ref="847"/>
    <nd ref="848"/>
    <nd ref="849"/>
    <nd ref="850"/>
    <nd ref="851"/>
    <nd ref="852"/>
    <nd ref="853"/>
    <nd ref="854"/>
    <nd ref="855"/>
    <nd ref="856"/>
    <nd ref="857"/>
    <nd ref="858"/>
    <nd ref="859"/>
    <nd ref="860"/>
    <nd ref="861"/>
    <nd ref="862"/>
    <nd ref="863"/>
    <nd ref="864"/>
    <nd ref="865"/>
    <nd ref="866"/>
    <nd ref="867"/>
    <nd ref="868"/>
    <nd ref="869"/>
    <nd ref="870"/>
    <nd ref="871"/>
    <nd ref="872"/>
    <nd ref="873"/>
    <nd ref="874"/>
    <nd ref="875"/>
    <nd ref="876"/>
    <nd ref="877"/>
    <nd ref="878"/>
    <nd ref="879"/>
    <nd ref="880"/>
    <nd ref="881"/>
    <nd ref="882"/>
    <nd ref="883"/>
    <nd ref="884"/>
    <nd ref="885"/>
    <nd ref="886"/>
    <nd ref="887"/>
    <nd ref="888"/>
    <nd ref="889"/>
    <nd ref="890"/>
    <nd ref="891"/>
    <nd ref="892"/>
    <nd ref="893"/>
    <nd ref="894"/>
    <nd ref="895"/>
    <nd ref="896"/>
    <nd ref="897"/>
    <nd ref="898"/>
    <nd ref="899"/>
    <nd ref="900"/>
    <nd ref="901"/>
    <tag k="landuse" v="farmyard"/>
    <tag k="natural" v="wood"/>
  </way>
  <way id="2" version="1">
    <nd ref="902"/>
    <nd ref="903"/>
    <nd ref="904"/>
    <nd ref="905"/>
    <nd ref="906"/>
    <nd ref="907"/>
    <nd ref="908"/>
    <nd ref="909"/>
    <nd ref="910"/>
    <nd ref="911"/>
    <nd ref="912"/>
    <nd ref="913"/>
    <nd ref="914"/>
    <nd ref="915"/>
    <nd ref="916"/>
    <nd ref="917"/>
    <nd ref="918"/>
    <nd ref="919"/>
    <nd ref="920"/>
    <nd ref="921"/>
    <nd ref="922"/>
    <nd ref="923"/>
    <nd ref="924"/>
    <nd ref="925"/>
    <nd ref="926"/>
    <nd ref="927"/>
    <nd ref="928"/>
    <nd ref="929"/>
    <nd ref="930"/>
    <nd ref="931"/>
    <nd ref="932"/>
    <nd ref="933"/>
    <nd ref="934"/>
    <nd ref="935"/>
    <nd ref="936"/>
    <nd ref="937"/>
    <nd ref="938"/>
    <nd ref="939"/>
    <nd ref="940"/>
    <nd ref="941"/>
    <nd ref="942"/>
    <nd ref="943"/>
    <nd ref="944"/>
    <nd ref="945"/>
    <nd ref="946"/>
    <nd ref="947"/>
    <nd ref="948"/>
    <nd ref="949"/>
    <nd ref="950"/>
    <nd ref="951"/>
    <nd ref="952"/>
    <nd ref="953"/>
    <nd ref="954"/>
    <nd ref="955"/>
    <nd ref="956"/>
    <nd ref="957"/>
    <nd ref="958"/>
    <nd ref="959"/>
    <nd ref="960"/>
    <nd ref="961"/>
    <nd ref="962"/>
    <nd ref="963"/>
    <nd ref="964"/>
    <nd ref="965"/>
    <nd ref="966"/>
    <nd ref="967"/>
    <nd ref="968"/>
    <nd ref="969"/>
    <nd ref="970"/>
    <nd ref="971"/>
    <nd ref="972"/>
    <nd ref="973"/>
    <nd ref="974"/>
    <nd ref="975"/>
    <nd ref="976"/>
    <nd ref="977"/>
    <nd ref="978"/>
    <nd ref="979"/>
    <nd ref="980"/>
    <nd ref="981"/>
    <nd ref="982"/>
    <nd ref="983"/>
    <nd ref="984"/>
    <nd ref="985"/>
    <nd ref="986"/>
    <nd ref="987"/>
    <nd ref="988"/>
    <nd ref="989"/>
    <nd ref="990"/>
    <nd ref="991"/>
    <nd ref="992"/>
    <nd ref="993"/>
    <nd ref="994"/>
    <nd ref="995"/>
    <nd ref="996"/>
    <nd ref="997"/>
    <nd ref="998"/>
    <nd ref="999"/>
    <nd ref="1000"/>
    <nd ref="1001"/>
    <nd ref="1002"/>
    <tag k="highway" v="primary"/>
  </way>
  <way id="3" version="1">
    <nd ref="1003"/>
    <nd ref="1004"/>
    <nd ref="1005"/>
    <nd ref="1006"/>
    <nd ref="1007"/>
    <nd ref="1008"/>
    <nd ref="1009"/>
    <nd ref="1010"/>
    <nd ref="1011"/>
    <nd ref="1012"/>
    <nd ref="1013"/>
    <nd ref="1014"/>
    <nd ref="1015"/>
    <nd ref="1016"/>
    <nd ref="1017"/>
    <nd ref="1018"/>
    <nd ref="1019"/>
    <nd ref="1020"/>
    <nd ref="1021"/>
    <nd ref="1022"/>
    <nd ref="1023"/>
    <nd ref="1024"/>
    <nd ref="1025"/>
    <nd ref="1026"/>
    <nd ref="1027"/>
    <nd ref="1028"/>
    <nd ref="1029"/>
    <nd ref="1030"/>
    <nd ref="1031"/>
    <nd ref="1032"/>
    <nd ref="1033"/>
    <nd ref="1034"/>
    <nd ref="1035"/>
    <nd ref="1036"/>
    <nd ref="1037"/>
    <nd ref="1038"/>
    <nd ref="1039"/>
    <nd ref="1040"/>
    <nd ref="1041"/>
    <nd ref="1042"/>
    <nd ref="1043"/>
    <nd ref="1044"/>
    <nd ref="1045"/>
    <nd ref="1046"/>
    <nd ref="1047"/>
    <nd ref="1048"/>
    <nd ref="1049"/>
    <nd ref="1050"/>
    <nd ref="1051"/>
    <nd ref="1052"/>
    <nd ref="1053"/>
    <nd ref="1054"/>
    <nd ref="1055"/>
    <nd ref="1056"/>
    <nd ref="1057"/>
    <nd ref="1058"/>
    <nd ref="1059"/>
    <nd ref="1060"/>
    <nd ref="1061"/>
    <nd ref="1062"/>
    <nd ref="1063"/>
    <nd ref="1064"/>
    <nd ref="1065"/>
    <nd ref="1066"/>
    <nd ref="1067"/>
    <nd ref="1068"/>
    <nd ref="1069"/>
    <nd ref="1070"/>
    <nd ref="1071"/>
    <nd ref="1072"/>
    <nd ref="1073"/>
    <tag k="highway" v="primary"/>
  </way>
</osm>
